PropID,Boro,Community Board,Council District,Garden Name,Address,Size,Jurisdiction,NeighborhoodName,Cross Streets,Latitude,Longitude,Postcode,Census Tract,BIN,BBL,NTA
NA,M,M03,2,11 BC Serenity Garden,626 East 11th Street,0.054,DPR,East Village,Avenues B & C,40.727124,-73.978677,10009,28,1000000,1003930020,Lower East Side                                                            
NA,B,B08,36,1100 Bergen Street Community Garden,1101 & 1105 Bergen Street,0.207,PRI,Crown Heights,Nostrand & New York Avenues,,,,,,,
M382,M,M11,9,110th Street Block Association,1651 Madison Avenue,0.043,DPR,East Harlem,Active,40.796295,-73.947533,10029,17402,1000000,1016160023,East Harlem South                                                          
M331,M,M11,8,117th Street Community Garden,172 E 117th Street,0.08,DPR,East Harlem,Active,40.798976,-73.940376,10035,182,1089914,1016440046,East Harlem North                                                          
NA,M,M03,2,11th Street Community Garden,422 East 11th Street,0.054,TPL,East Village,1st Avenue & Avenue A,40.729079,-73.983327,10009,34,1000000,1004380019,East Village                                                               
NA,X,X12,15,211th Street Block Association.,Carlisle Place,0.182,NYRP,,At E. 211th Street,,,,,,,
NA,X,X06,15,2120 Mapes Avenue HDFC,2124 Mapes Avenue,0.151,TPL,,At E. 181st Street,40.847216,-73.885018,10460,36501,2000000,2031110007,East Tremont                                                               
B535,B,B05,42,400 Montauk Avenue Block Association. (Ismael Vega y Amigos),New Lots Avenue,0.091,DPR,East New York,Active,,,,,,,
M313A,M,M03,1,5th Street Slope Garden Club,626-27 East 5th Street,0.031,DPR,East Village,Active,40.723433,-73.980995,10009,2601,1075625,1003870020,Lower East Side                                                            
NA,B,B07,38,6/15 Green,274 15th Street,0.287,TPL,Park Slope,corner of 6th Avenue & 15th Street,40.664706,-73.987554,11215,141,3000000,3010480034,Park Slope-Gowanus                                                         
NA,B,B07,0,64th Street Community Garden,64th Street,NA,DOT,Sunset Park,West of 4th Avenue,,,,,,,
M313,M,M03,1,6BC Botanical Garden,624-628 E 6th Street,0.171,DPR,East Village,Active,40.724036,-73.980569,10009,2601,1000000,1003870121,Lower East Side                                                            
M293,M,M03,2,6th Street & Avenue B Garden,78-92 Avenue B,0.315,DPR,East Village,Active,40.724031,-73.981986,10009,32,1000000,1004010039,East Village                                                               
B438,B,B16,41,700 Decatur Street Block Association,700 Decatur Street,0.114,DPR,Bed-Stuy,Active,40.683541,-73.915121,11233,373,3040656,3015060032,Ocean Hill                                                                 
X351,X,X03,17,811 Family and Friends Association,809 Courtlandt Avenue,0.063,DPR,,Active,40.823065,-73.91645,10451,69,2000000,2024180022,Melrose South-Mott Haven North                                             
Q495,Q,Q03,21,97th Street Block Association,33-28 97th Street,0.177,DPR,Corona,Active,40.756409,-73.87122,11368,375,4000000,4017110021,North Corona                                                               
M312,M,M03,2,9th Street Community Garden & Park,703 East 9th Street,0.39,DPR,East Village,Active,40.725211,-73.977776,10009,28,1000000,1003790063,Lower East Side                                                            
B507,B,B03,41,A Better Community Garden,762-764 Herkimer Place/13-21 Hunterfly,0.044,DPR,Bed-Stuy,Active,,,,,,,
X350,X,X03,16,A. Badillo Community Rose Garden,924 Melrose Avenue,0.064,DPR,Melrose,Active,40.82513,-73.913329,10451,141,2000000,2023840009,Morrisania-Melrose                                                         
NA,B,B04,37,Aberdeen Street II Garden Projects,Aberdeen Street,0.253,NYRP,,,,,,,,,
B533,B,B16,,Abib Newborn,495 Osborn Street,0.249,DPR,East New York,Active,40.659528,-73.906203,11212,920,3000000,3036170013,Brownsville                                                                
NA,X,X09,18,Adlai E. Stevenson High School-Ecological Garden,1980 Lafayette Avenue/Stickball Avenue,NA,DOE,,Lafayette & Stickball Avenue,,,,,,,
NA,M,M03,2,Alberts Garden,16-18 East 2nd Street,0.07,TPL,East Village,Bowery & 2nd Avenue,40.725347,-73.99132,10003,3602,1000000,1004580041,East Village                                                               
B439,B,B03,34,All People's Church of the Apostolic Faith Community Garden,149 Tompkins Avenue,0.064,DPR,Bed-Stuy,Active,40.694344,-73.946088,11206,25901,3000000,3017600001,Bedford                                                                    
NA,M,M03,2,"All Peoples Garden, Inc.",293-295 East 3rd Street,0.099,TPL,East Village,Avenues C & D,40.721396,-73.979916,10009,2601,1000000,1003730059,Lower East Side                                                            
B409,B,B06,39,Amazing Garden,261-265 Columbia Street,0.103,DPR,Red Hook,Active,40.683251,-74.003548,11231,51,3000000,3003480003,Carroll Gardens-Columbia Street-Red Hook                                   
B440,B,B16,41,Amboy St. Garden,199 Amboy Street,0.391,DPR,,Active,40.665633,-73.913605,11212,902,3081400,3035400007,Brownsville                                                                
B441,B,B03,36,American Heart,122 Hart Street,0.05,DPR,Bed-Stuy,Active,40.693378,-73.946915,11206,261,3000000,3017710029,Bedford                                                                    
X339,X,X03,16,Angie Lee-Gonzalez & Luis Gonzalez Garden,1768 Bryant Avenue,0.131,DPR,,Active,40.83652,-73.885069,10460,161,2117995,2029980170,Crotona Park East                                                          
NA,X,X05,15,Anthony Avenue Garden,2078 Anthony Avenue,0.054,TPL,,E. 180th Street & Burnside Avenue,40.852889,-73.901885,10457,381,2000000,2031560055,Mount Hope                                                                 
Q470,Q,X01,,Astoria Residents Reclaiming Our World (ARROW),35th St. Bet. 35th & 36th Aves,0.287,DPR,,,,,,,,,
B443,B,B05,37,Atkins Gardeners,213 Atkins Avenue,0.068,DPR,East New York,Active,40.673772,-73.878795,11208,1194,3256563,3040230006,East New York                                                              
NA,M,M03,1,Auxiliary Services for High Schools @ P.S. 91,198 Forsyth Street,0.051,DOE,Lower East Side,Stanton Street,40.72252,-73.990728,10002,3601,1005626,1004220072,Chinatown                                                                  
M342,M,M03,2,Avenue B Community Garden Association,200 Avenue B,0.05,DPR,East Village,Active,40.728307,-73.978864,10009,34,1005220,1004060037,East Village                                                               
Q486,Q,Q12,28,B.C.C.A. Mini-Park and Garden,150-14 115th Drive,0.092,DPR,,Active,40.683535,-73.792211,11434,272,4264367,4121920014,Baisley Park                                                               
NA,Q,Q12,,Back To Eden,144-29 Lakewood Avenue,NA,TPL,,At Inwood St,40.689588,-73.803594,11435,196,       ,          ,South Jamaica                                                              
B410,B,B06,39,Backyard Garden,61-73 Hamilton Avenue,0.225,DPR,Red Hook,Active,40.682842,-74.006259,11231,51,3000000,3003520010,Carroll Gardens-Columbia Street-Red Hook                                   
NA,X,X07,11,Bainbridge Avenue Garden,2974-2980 Bainbridge Avenue,0.066,TPL,,E. 201st Street & Bedford Park Boulevard,40.870996,-73.884326,10458,415,2016756,2032920084,Bedford Park-Fordham North                                                 
NA,X,X06,,Bathgate Garden,1836 Bathgate Avenue,NA,NYRP,,"E 175th & E 176th, just North of Cross Bronx",40.84506,-73.898018,10457,395,2000000,2029230012,Claremont-Bathgate                                                         
R137A,R,R03,3,Bayview Habitat,Bayview Terrace,0.276,DPR,,,,,,,,,
NA,Q,Q14,31,Beach Channel High School,100-00 Beach Channel Drive,NA,DOE,Far Rockaway,At Beach 100 Street,40.586066,-73.822624,11694,94201,4303773,4161670099,Breezy Point-Belle Harbor-Rockaway Park-Broad Channel                      
NA,B,B03,41,Bed-Stuy Community Garden (Lola Bryant Community Garden),93-95 Malcolm X Avenue,0.073,NYRP,Bed-Stuy,Greene & Lexington Avenues,,,,,,,
NA,B,B03,,Bed-Stuy Farm,404 Decatur Street,NA,DPR/PRI,,Btwn Malcolm X & Patchen Avenue,40.682166,-73.927115,11233,381,3000000,3016820058,Crown Heights North                                                        
NA,X,X06,15,Belmont Little Farmers,2483 Belmont Avenue,0.1,TPL,Belmont,E. 189th Street & E. Fordam Rd.,40.856921,-73.884462,10458,389,       ,          ,Belmont                                                                    
B444,B,B01,34,Berry Street Garden,301-303 Berry Street,0.137,DPR,Williamsburg,Active,40.713449,-73.963827,11249,551,3000000,3024170004,North Side-South Side                                                      
NA,X,X04,,Bettes Rose Garden,Teller Avenue,NA,NYRP,,E 164th & E 165th,,,,,,,
B446,B,B05,42,Big Red Garden,436 Van Siclen Avenue,0.043,DPR,East New York,Active,40.669128,-73.889416,11207,1160,3000000,3040410052,East New York                                                              
NA,X,X12,18,Bissel Gardens,in Bissel Street,0.08,MTA,,from Barnes to Baychester Avenues,,,,,,,
NA,M,M11,,Black Veterans For Social Justice,22 East 119th Street,NA,HRA,East Harlem,5th & Madison Avenues,40.802263,-73.944274,10035,184,1076434,1017450005,East Harlem North                                                          
Q487,Q,Q12,28,Block Association #81,Inwood Street,0.115,DPR,Jamaica,Active,,,,,,,
M333,M,M10,7,Bradhurst Avenue Tenants Association,Bradhurst Avenue,0.092,DPR,Hamilton Heights,Active,,,,,,,
NA,B,B02,,Bridge Plaza Community Garden,Bridge St,NA,NYRP,,Corner of Bridge St & Concord St,,,,,,,
NA,B,B02,,Bridge Plaza Court,Bridge Plaza Court,NA,DPR/DOT,,Concord St & Nassau St,,,,,,,
M334,M,M03,2,Brisas Del Caribe,237 E 3rd Street,0.06,DPR,East Village,Active,40.722296,-73.982048,10009,2601,1000000,1003860052,Lower East Side                                                            
X246,X,X01,,Brook Park,494 East 141st Street,NA,DPR,,Active,40.809829,-73.918667,10454,39,2000000,2022850042,Mott Haven-Port Morris                                                     
B421,B,B02,35,Brooklyn Bears/Carlton Avenue Garden,397-401 Carlton Avenue,0.14,DPR,Clinton Hill,Active,40.685731,-73.971356,11238,179,3000000,3019570023,Fort Greene                                                                
NA,B,B02,33,Brooklyn Bears/Pacific Street Garden,Flatbush Avenue,NA,TPL,Park Slope,Atlantic Avenue & Pacific Street,,,,,,,
B422,B,B02,33,Brooklyn Bears/Rockwell Place Garden,65-73 Flatbush Avenue,0.082,DPR,Downtown Brooklyn,Active,40.687133,-73.979674,11217,33,       ,          ,Fort Greene                                                                
NA,B,B02,35,Brooklyn's Finest Garden,48 Lefferts Place,0.057,DPR,,Street James Pl & Grand Avenue,40.681526,-73.961901,11238,201,3000000,3020180035,Clinton Hill                                                               
X315,X,X02,17,Bryant Hill Community Garden,899-999 Bryant Avenue,0.34,DPR,Hunt's Point,Active,40.819878,-73.886951,10474,11502,2000000,2027610102,Hunts Point                                                                
B447,B,B05,42,C.A.U.S.A. Festival Garden,790 Blake Avenue,0.168,DPR,East New York,Active,40.668623,-73.889471,11207,1160,3000000,3040570031,East New York                                                              
NA,X,X05,14,C.E.S. 109 - The Angelo Sanchez Inspirational Garden,1771 Popham Avenue,NA,DOE,,,40.851414,-73.918533,10453,20502,2094549,2028770393,University Heights-Morris Heights                                          
NA,X,X04,16,C.E.S. 126 - Literacy Garden,175 W 166th Street,NA,DOE,,Ogden Avenue & MLK Jr. Boulevard,40.835784,-73.928324,10452,199,2003495,2025260083,Highbridge                                                                 
NA,X,X03,0,C.E.S. 55,450 St. Pauls Place,NA,DOE,Mt. Eden,Park & Washington Avenues,40.836404,-73.905014,10456,14702,2009463,2029020001,Claremont-Bathgate                                                         
NA,X,X04,16,C.E.S. 73,1020 Anderson Avenue,NA,TPL/DOE,,E 164th & E. 165th Streets.,40.832706,-73.926838,10452,189,2003051,2025040082,Highbridge                                                                 
X340,X,X03,16,C.S. 134X - Community Improvement Garden,1313-1311 Bristow Street,0.161,DPR,Morrisania,Active,40.831035,-73.89477,10459,153,       ,          ,Crotona Park East                                                          
NA,M,M10,9,C.S. 154 - Our Children's Garden,250 W 127th Street,0.066,DOE,,Frederick Douglass & Adam Clayton Powell Boulevards,40.810928,-73.948938,10027,224,1058671,1019320010,Central Harlem North-Polo Grounds                                          
NA,M,M10,9,C.S. 46 - Tappan School Garden of Heroes,2987 Frederick Douglass Boulevard,NA,DOE,,At Harlem River Drive,,,,,,,
NA,X,X06,15,C.S. 57 - Garden of Hope,2111 Crotona Avenue,NA,DOE,,E. 180th & E. 181st Streets.,40.848472,-73.888561,10457,373,2012359,2030810026,East Tremont                                                               
NA,X,X06,0,C.S. 6 - West Farms School Garden,1000 East Tremont Avenue,NA,DOE,Tremont,Vyse & Bryant Avenues,40.840755,-73.881707,10460,359,2010892,2030050010,East Tremont                                                               
NA,X,X03,15,C.S. 61 - The  Francisco Oller School,1550 Crotona  Park East,0.055,DOE,,At Charlotte Street,40.836575,-73.892817,10460,153,2009865,2029390045,Crotona Park East                                                          
NA,Q,Q13,27,Cambria Heights Civic Association,227th Street,0.207,TPL,Cambria Heights,At Linden Boulevard,,,,,,,
M359,M,M03,2,CAMPOS,640-644 East 12th Street,0.119,DPR,East Village,Active,40.727318,-73.977194,10009,28,1000000,1003940029,Lower East Side                                                            
M388,M,M11,9,Carolina Garden / formerly 116th Street Block Association,122nd Street,0.063,DPR,East Harlem,Active,,,,,,,
NA,X,X12,0,Carpenter Avenue Community Garden,in East 239th Street,NA,DOT,Wakefield,At Carpenter Avenue,,,,,,,
M385,M,M10,9,Carrie McCracken Garden/TRUCE,143-145 St. Nicholas Avenue,0.059,DPR,,Active,40.804436,-73.952746,10026,218,1000000,1019230020,Central Harlem South                                                       
NA,B,B06,30,Carroll Street Community Garden (Our Lady of Peace Church or Gil Hodges Garden),534 Carroll Street,0.069,NYRP,,,40.676396,-73.984555,11215,119,3000000,3004560014,Park Slope-Gowanus                                                         
NA,M,M11,8,Carver Community Garden,236-242 East 124th Street,0.275,TPL,East Harlem,2nd & 3rd Avenues,40.802632,-73.935399,10035,194,1000000,1017880034,East Harlem North                                                          
NA,X,X01,17,Cauldwell Youth Garden,551 Cauldwell Avenue,0.119,TPL,Mott Haven,E. 149th Street & Westchester Avenue,40.814133,-73.910779,10455,73,2000000,2026230058,Melrose South-Mott Haven North                                             
B448,B,B03,36,Cedar Tree Garden,305 Greene Avenue,0.177,DPR,,Active,40.687514,-73.958923,11238,233,3000000,3019530070,Bedford                                                                    
NA,B,B03,41,Central Bainbridge Block Association Inc.,277-279 Bainbridge Street,0.112,TPL,Bed-Stuy,Ralph & Patchen Avenues,40.681591,-73.925688,11233,381,3047698,3016830091,Crown Heights North                                                        
NA,M,M11,9,Chenchitas Group Garden,1691-93 Madison Avenue,0.053,HPD,East Harlem,E. 111th & E. 112th Streets.,40.797308,-73.946792,10029,17402,1000000,1016170051,East Harlem South                                                          
NA,M,M10,9,Childrens Aid Soc. Garden (The Sowers),21 West 118th Street,0.057,PRI,,5th & Lenox Avenues,40.802366,-73.94642,10026,190,1083962,1017170022,Central Harlem South                                                       
B224A,B,B03,41,Citizens for a Better Community,127 Patchen Avenue,0.299,DPR,Bed-Stuy,Active,40.687548,-73.926979,11221,385,3000000,3016430001,Stuyvesant Heights                                                         
NA,M,M02,3,City-As-School H.S.,16 Clarkson Street,0.11,DOE,West Village,Hudson & Varick Streets.,40.729412,-74.006148,10014,67,1009757,1005810054,West Village                                                               
B450,B,B05,37,Clara's Garden,573-579 Glenmore Avenue,0.043,DPR,East New York,Active,40.674214,-73.889148,11207,1152,3088528,3039790033,East New York                                                              
X321,X,X04,16,Claremont Neighborhood Garden,1280 Teller Avenue,0.19,DPR,,Active,40.834051,-73.910553,10456,17701,2000000,2024310020,East Concourse-Concourse Village                                           
NA,B,B03,36,Classon/Fulgate Block Association,474 Classon Avenue,0.115,TPL,,Madison & Monroe Streets,40.683943,-73.959033,11238,231,3414490,3019840062,Clinton Hill                                                               
NA,X,X04,16,Clay Avenue Community Garden,1328-1332 Clay Avenue,0.033,NYRP,,E. 169th & E. 170th Streets,40.835309,-73.908936,10456,17702,2000000,2028870012,East Concourse-Concourse Village                                           
M374,M,M10,9,Clayton Williams Garden,303 W 126th Street,0.057,TPL/DPR,,Active,40.810959,-73.950928,10027,215,1000000,1019530028,Central Harlem North-Polo Grounds                                          
B526,B,B05,37,Cleveland Street Vegetable Garden,433-435 Cleveland Street,0.057,DPR,East New York,Active,40.674162,-73.884339,11208,1166,3088902,3040010003,East New York                                                              
NA,B,B02,35,Clifton Place Garden,289 Grand Avenue,0.086,TPL,,Clifton Pl. & Greene Avenue,40.687639,-73.962648,11238,231,3000000,3019520003,Clinton Hill                                                               
B451,B,B03,36,Clifton Place Memorial Park & Garden,1031-35 Bedford Avenue,0.165,DPR,,Active,40.688603,-73.954945,11216,243,3000000,3017930009,Bedford                                                                    
NA,X,X06,15,Clinton Avenue Block Association,757 East 179th Street,0.115,NYRP,,N/W corner of Prospect Avenue & 179th Street,40.845858,-73.888049,10457,371,2000000,2030940063,East Tremont                                                               
M281,M,M04,3,Clinton Community Garden,436 West 48th Street,0.35,DPR,Hell's Kitchen,Active,40.762717,-73.991026,10036,127,1000000,1010570050,Clinton                                                                    
NA,X,X04,16,College Avenue GreenThumb,1420 College Avenue,0.43,DPR,,E. 170th & E. 171st Streets,40.838033,-73.91027,10456,225,2000000,2027840004,East Concourse-Concourse Village                                           
NA,M,M10,,Colonial Gardeners,304-306 West 150th St,NA,PRI,,Bradhurst Avenue & Frederick Douglass Boulevard,40.826069,-73.939785,10039,259,1000000,1020450098,Central Harlem North-Polo Grounds                                          
M335,M,M03,1,Committee of Poor Peoples of the LES Community Garden,171 Stanton Street,0.058,DPR,Lower East Side,Active,40.72017,-73.984289,10002,2201,1000000,1003440148,Lower East Side                                                            
B520,B,B04,34,Concerned Citizens of Grove Street,72-74 Grove Street,0.11,DPR,Bushwick,Active,40.692238,-73.92181,11221,399,3000000,3033220008,Bushwick South                                                             
B452,B,B05,37,Concerned Residents of Barbey Street,606 Glenmore Avenue,0.057,DPR,,Active,40.674396,-73.887803,11207,1150,3000000,3039970010,East New York                                                              
B453,B,B05,37,Concerned Residents of Montauk Avenue,214 Montauk Avenue,0.091,DPR,East New York,Active,40.673887,-73.87789,11208,1194,       ,          ,East New York                                                              
NA,M,M08,0,Life Sciences High School,320 96th Street NY NY 10128,NA,DOE,Upper East Side,1st & 2nd Avenue,,,,,,,
NA,X,X06,15,Concerned Tenants of Daly Avenue,2139 Daly Avenue,0.179,TPL,,181st Street & Bronx Parkway South,40.845582,-73.880943,10460,363,2000000,2031250035,East Tremont                                                               
NA,B,B04,37,Contented Hart Garden,1475 Bushwick Avenue,0.057,TPL,Bushwick,Pilling & Granite Streets.,40.683411,-73.907424,11207,403,3000000,3034570003,Bushwick South                                                             
B454,B,B04,40,Cooper Street Block Buster Block Association.,41 Cooper Street,0.16,DPR,Bushwick,Active,40.684528,-73.910541,11207,403,3000000,3034320040,Bushwick South                                                             
NA,B,B04,37,Cooper Street Gardeners,34 Cooper Street,0.078,NYRP,,Bushwick Avenue & Broadway,40.684311,-73.910725,11207,403,3000000,3034380024,Bushwick South                                                             
Q474A,Q,Q04,21,Corona Taxpayers Association,52-02 102nd  Street,0.18,DPR,Corona,Active,40.741788,-73.859801,11368,44301,4000000,4019320031,Corona                                                                     
X338,X,X01,17,Courtlandt Avenue Association,364-366 East 158th Street,0.171,DPR,Melrose,Active,40.822689,-73.91614,10451,69,2000000,2024040009,Melrose South-Mott Haven North                                             
M315,M,M03,2,Creative Little Garden,530 East 6th Street,0.06,DPR,East Village,Active,40.72511,-73.983119,10009,32,1000000,1004010025,East Village                                                               
NA,X,X05,,Creston Jungle Playground,2242 Creston Avenue,NA,NYRP,,E 182nd & E 183rd,40.856775,-73.901518,10453,23704,2000000,2031630005,Fordham South                                                              
B455,B,B05,37,Crystal Street Block Association Community Garden,Crystal Street,0.344,DPR,East New York,Active,,,,,,,
NA,Q,Q14,31,Culinary Kids Garde (Seagirt Community Garden),3003 Seagirt Boulevard.,0.138,HPD,Far Rockaway,B30th & B31st,40.595964,-73.763133,11691,992,4000000,4158060004,Hammels-Arverne-Edgemere                                                   
NA,Q,Q12,27,"Curtis ""50 Cent"" Jackson Community Garden",11709 165th Street,0.083,NYRP,,At Foch Boulevard,40.684574,-73.78111,11434,284,4000000,4123560021,Baisley Park                                                               
NA,B,B02,33,David Foulke Community Garden,248-250 Bergen Street,0.073,TPL,Boerum Hill,Bond & Nevins Streets.,40.684364,-73.984438,11217,71,3000000,3003870038,DUMBO-Vinegar Hill-Downtown Brooklyn-Boerum Hill                           
NA,X,X07,14,Davidson Avenue Community Garden,2385 Davidson Avenue,0.115,TPL,,W. 184th Street & W. Fordham Rd.,40.861379,-73.903254,10468,253,       ,          ,Kingsbridge Heights                                                        
M336,M,M03,2,De Colores Community Garden,311-313 E 8th Street,0.066,DPR,East Village,Active,40.725296,-73.979821,10009,2602,1000000,1003910054,Lower East Side                                                            
NA,B,B04,37,Decatur Street Community Garden,1052 Decatur Street,0.057,NYRP,,Bushwick & Evergreen Avenues,40.685985,-73.910265,11207,403,3000000,3034330014,Bushwick South                                                             
X179A,X,X02,17,Demera/Santiago Garden,941-943 Avenue St. John,0.126,DPR,,Not GreenThumb,40.815229,-73.902569,10455,83,2000000,2026850030,Longwood                                                                   
M323,M,M11,8,Diamante Garden (Block and School Association),306-310 East 118th Street,0.186,DPR,East Harlem,Active,40.798107,-73.936371,10035,188,1000000,1016890047,East Harlem North                                                          
M337,M,M03,2,Dias y Flores,520-522 East 13th Street,0.119,DPR,East Village,Active,40.729306,-73.979885,10009,34,1000000,1004060016,East Village                                                               
NA,M,M12,7,Dorothy K. McGowan Memorial Garden,513 W 158th Street,0.045,TPL,Washington Heights,Amsterdam Avenue & Broadway,40.833766,-73.942217,10032,245,1000000,1021170046,Washington Heights South                                                   
M302,M,M11,,Dream Street Park,223 - 231 E. 124 St.,0.252,DPR,,,40.802742,-73.935612,10035,242,1000000,1017890011,East Harlem North                                                          
X271A,X,X04,16,Dred Scott Bird Sanctuary Garden and Park,E 169th Street,0.473,DPR,,Active,,,,,,,
NA,X,X06,15,Drew Garden - I.S. 167,East Tremont Avenue,NA,DOT,,west of E. 177th Street & BX River,,,,,,,
NA,Q,Q12,28,Dunton Block and Civic Association. Inc.,Remington Street,0.551,TPL,,At Shore Avenue,,,,,,,
NA,M,M12,10,Dyckman Valley School - P.S. 152,93 Nagle Avenue,0.09,DOE,,Ellwood & Sicles Streets.,40.860412,-73.927936,10040,283,1064149,1021730001,Washington Heights North                                                   
M324,M,M03,2,Earth People,333-335 East 8th Street,0.106,DPR,East Village,Active,40.725022,-73.979172,10009,2602,1000000,1003910043,Lower East Side                                                            
NA,M,M03,1,Earth School - P.S.64,600 East 6th Street,0.271,DOE,East Village,At Avenue B,40.72438,-73.98138,10009,2601,1004627,1003870001,Lower East Side                                                            
NA,M,M11,,East 103rd Street Community Garden,105 E 103rd Street,NA,NYRP,,Lexington & Park Avenues,40.790817,-73.948859,10029,166,1000000,1016310002,East Harlem South                                                          
NA,X,X01,8,East 143rd Street Community Garden (Bronx Community & Cultural Garden or North Church Garden),401 E 143rd Street,0.208,NYRP,,At Willis,40.812172,-73.920336,10454,41,2000000,2022880001,Mott Haven-Port Morris                                                     
B414,B,B06,15,East 4th St. Com. Gar.(Windsor Terrace Kensington Veterans Mem.),171 E 4th Street,0.057,DPR,Kensington,Active,40.648198,-73.977358,11218,500,       ,          ,Windsor Terrace                                                            
NA,B,B05,37,East End Community Garden,530-2 Glenmore Avenue / 260 Van Siclen Avenue,0.161,DPR,East New York,At Van Siclen Avenue,,,,,,,
NA,M,M11,8,East Harlem Community Garden,429-433 East 117th Street,0.142,TPL,East Harlem,1st & Pleasant Avenues,40.796357,-73.934119,10035,178,1000000,1017110013,East Harlem North                                                          
B458,B,B09,35,Eastern Parkway Coalition,"Eastern Pkwy.,W/O Franklin",0.44,DPR,Crown Heights,Active,,,,,,,
M319B,M,M09,0,Edgecomb Avenue Garden Park Sanctuary,339-341 Edgecomb Avenue,0.112,DPR,,Active,40.826462,-73.941811,10031,231,1000000,1020530099,Hamilton Heights                                                           
X341,X,X03,17,Edith Community Garden (830 Elton Tnts. Assoc.),836 Elton Avenue,0.116,DPR,Melrose,Active,40.8227,-73.912729,10451,141,       ,          ,Morrisania-Melrose                                                         
M316,M,M10,21,Edward P. Bowman Park,52 W 129th Street,0.046,DPR,West Harlem,Active,40.809753,-73.94231,10027,208,1000000,1017260064,Central Harlem North-Polo Grounds                                          
X313,X,X01,17,El Batey Borincano,811-815 Eagle Avenue,0.17,DPR,"
Melrose",Active,40.820573,-73.909101,10456,75,2117523,2026180039,Melrose South-Mott Haven North                                             
X323,X,X06,15,El Batey de Dona Provi,504 East 178th Street,0.13,DPR,,Active,40.847974,-73.896315,10457,395,       ,          ,Claremont-Bathgate                                                         
NA,M,M11,8,El CataÃ±o Garden,169 East 110th Street,0.057,NYRP,East Harlem,3rd & Lexington Avenues,40.794391,-73.9434,10029,172,1087779,1016387501,East Harlem South                                                          
X339,X,X01,17,El Flamboyan,Tinton Avenue,0.402,DPR,,Active,,,,,,,
X277,X,X01,17,El Girasol,624-638 East 138th Street,0.085,DPR,,Active,40.806094,-73.915774,10454,2701,2000000,2025500031,Mott Haven-Port Morris                                                     
X277,X,X01,17,El Girasol,624-638 East 138th Street,0.085,HPD,,Active,40.806094,-73.915774,10454,2701,2000000,2025500031,Mott Haven-Port Morris                                                     
M268A,M,M03,2,El Jardin del Paraiso,706-718 East 5th Street /311-321 East 4th Street,0.73,DPR,East Village,Active,,,,,,,
B424,B,B01,30,El Puente: EspÃ­ritu Tierra Community Garden,203-207 South 2nd Street,0.23,DPR,Williamsburg,Active,40.712385,-73.959633,11211,523,3393848,3024070032,North Side-South Side                                                      
M339,M,M03,2,El Sol Brillante Jr.,537 East 12th Street,0.059,DPR,East Village,Active,40.728694,-73.980372,10009,34,1000000,1004060046,East Village                                                               
M340,M,M10,9,Elizabeth Langley Memorial Garden,121-123 West 137th Street,0.11,DPR,Central Harlem,Active,40.815768,-73.940759,10030,228,1000000,1020060019,Central Harlem North-Polo Grounds                                          
B460,B,B05,42,Elton Street Block Association,585 Elton Street,0.097,DPR,East New York,Active,40.668638,-73.882081,11208,1164,3000000,3040660002,East New York                                                              
NA,B,B05,37,Essex Street Community Fulton Street Garden (Fulton Street Community Garden),3030 Fulton Street,0.074,NYRP,East New York,At Essex Street,40.680441,-73.883066,11208,1168,3000000,3039560051,East New York                                                              
B461,B,B05,0,Euclid 500 Block Association.,532 Euclid Avenue,0.181,DPR,East New York,Active,40.673943,-73.871567,11208,1196,3095412,3042490079,East New York                                                              
NA,B,B05,42,Euclid Pine Block Association,,0.071,TPL,East New York,Aldride & Bay Vew,,,,,,,
B532,B,B03,,F.A.R.R. Block Association,808 Herkimer Street,0.028,DPR,,Active,40.678383,-73.926777,11233,299,3000000,3017090022,Crown Heights North                                                        
B462,B,B05,42,Family Community Garden - Brooklyn,793 Cleveland Street,0.275,DPR,East New York,Active,40.665184,-73.881518,11208,1120,3097072,3043130055,East New York                                                              
M330,M,M11,8,Family Community Garden - Manhattan,156 East 111th Street,0.04,DPR,East Harlem,Active,40.79527,-73.943572,10029,172,1000000,1016380050,East Harlem South                                                          
NA,M,M11,8,Family Garden,431 East 114th Street,0.057,NYRP,East Harlem,1st & Pleasant Avenues,40.794189,-73.935108,10029,178,1000000,1017080017,East Harlem North                                                          
X337,X,X01,17,Family Group Garden,419 East 158th Street,0.101,DPR,Melrose,Active,40.822053,-73.913995,10451,69,2102760,2023800127,Melrose South-Mott Haven North                                             
B463,B,B16,41,Fantasy Garden,181 Legion Street,0.23,DPR,Brownsville,Active,40.664208,-73.917132,11212,894,3000000,3035530021,Brownsville                                                                
X252B,X,X06,0,Farm in the Bronx,East 182nd Street,0.188,DPR,,Active,,,,,,,
B464,B,B16,41,Farmers Garden,1897-1905 Bergen Street,0.154,DPR,,Active,40.674381,-73.91832,11233,303,3000000,3014460163,Ocean Hill                                                                 
M310,M,M03,2,Firemens Memorial Garden Inc.,358-364 E 8th Street,0.17,DPR,East Village,Active,40.72447,-73.97791,10009,2602,1000000,1003770011,Lower East Side                                                            
B465,B,B03,36,First Quincy Street GreenThumb Garden,397-401 Quincy Street,0.13,DPR,,Active,40.687717,-73.944139,11221,265,3000000,3018050076,Bedford                                                                    
M358,M,M03,,First Street Garden,48 East 1st Street,0.061,DPR,,Active,40.72384,-73.989772,10003,3602,1000000,1004430053,East Village                                                               
B466,B,B05,42,First Temple of David,494 Bradford Street,0.062,DPR,East New York,Active,40.666585,-73.890635,11207,1126,       ,          ,East New York (Pennsylvania Ave)                                           
M291,M,M01,1,FishBridge Pk. (South-Water-Front Neigh. Assoc.),338-340 Pearl Street,0.1,DPR,Downtown Manhattan,Active,40.709257,-74.00198,10038,1501,1000000,1001060022,Battery Park City-Lower Manhattan                                          
NA,M,M10,9,Five Star Block Association,250-252 West 121st Street,0.083,TPL,Harlem,Adam Clayton Powell & Fredrick Douglas Blvds,40.807004,-73.951621,10027,220,1000000,1019260053,Central Harlem South                                                       
B467,B,B05,37,Floral Vineyard,2379-2385 Pitkin Avenue,0.107,DPR,East New York,Active,40.673578,-73.884567,11207,1150,3000000,3040000031,East New York                                                              
X324,X,X07,15,Fordham Bedford Lot-Busters,2592-2597 Bainbridge Avenue,0.044,DPR/TPL,,Active,40.863711,-73.892599,10458,39901,       ,          ,Bedford Park-Fordham North                                                 
X324,X,X07,15,Fordham Bedford Lot-Busters,2592-2597 Bainbridge Avenue,0.044,TPL/DPR,,Active,40.863711,-73.892599,10458,39901,       ,          ,Bedford Park-Fordham North                                                 
M317,M,M09,7,Frank White Memorial Garden,506-508 West 143rd Street,0.09,DPR,Hamilton Heights,Active,40.824306,-73.949441,10031,229,1000000,1020740045,Hamilton Heights                                                           
X318,X,X03,16,Franklin Memorial Garden,1060-1062 Cauldwell Avenue,0.12,DPR,Morrisania,Active,40.826309,-73.905603,10456,185,       ,          ,Morrisania-Melrose                                                         
NA,M,M07,0,Frederick Douglass Academy HS,2599 Adam Clayton Powell Jr Boulevard,0.197,DOE,,At W. 147th Street,,,,,,,
NA,M,M11,9,Friendly Garden,95 East 111th Street,0.076,HPD,East Harlem,At Park Avenue,40.796245,-73.945843,10029,17402,1000000,1016170035,East Harlem South                                                          
NA,M,M09,7,Friendship Garden (Lucille McClarey Garden),499 West 150th Street,0.038,NYRP,Hamilton Heights,,40.828638,-73.945842,10031,237,1000000,1020820127,Hamilton Heights                                                           
M377,M,M10,,Garden,Fredrick Douglas Blvd. and W. 152ns St,0.046,DPR,,,,,,,,,
B420,B,B03,41,Garden Beautiful,Corner of Broadway & Putnam Ave.,0.194,DPR,Bed-Stuy,Active,,,,,,,
NA,B,B03,41,Garden of Angels,978 Greene Avenue,0.057,TPL,Bed-Stuy,Patchen Avenue & Malcolm X Blvd.,40.690966,-73.928771,11221,387,3000000,3016220032,Stuyvesant Heights                                                         
X297,X,X04,14,Garden of Eden - Bronx,1686 Weeks Avenue,0.21,DPR,,Active,40.844045,-73.907616,10457,22902,2007362,2027920030,Mount Hope                                                                 
X293,X,X06,15,Garden of Happiness,2156-2160 Prospect Avenue,0.33,DPR,Crotona,Active,40.848425,-73.885543,10457,371,2118275,2031100048,East Tremont                                                               
NA,B,B03,36,Garden of Hope,392 Hancock Street,0.046,NYRP,,Throop & Marcus Garvey Blvd,40.683685,-73.939967,11216,275,3414301,3018410014,Stuyvesant Heights                                                         
X298,X,X04,14,Garden of Life,1685 Weeks Avenue,0.18,DPR,,Active,40.844009,-73.907641,10457,22902,2109796,2027930028,Mount Hope                                                                 
M341,M,M10,9,Garden of Love,302 West 116th Street,0.087,DPR,Upper West Side,Active,40.804522,-73.955636,10026,20102,1000000,1018480055,Central Harlem South                                                       
B399,B,B06,38,Garden of Union (Annie's Garden),"634-36, 640 Union Street",0.203,DPR,Park Slope,Active,,,,,,,
NA,X,X06,15,Garden Of Youth,E 182nd Street,NA,PRI,Crotona,At Prospect Avenue,,,,,,,
M071A,M,M09,,Garden People,West 91st and Riverside Drive,NA,DPR,,Active,,,,,,,
M329,M,M03,2,Generation X Cultural Garden,270-272 East 4th Street,0.11,DPR,East Village,Active,40.722906,-73.981662,10009,2601,1000000,1003860021,Lower East Side                                                            
NA,B,B05,42,Genesis Homes Garden,298-304 Snediker Avenue,0.054,DPR,East New York,,40.667834,-73.900611,11207,1134,       ,          ,East New York (Pennsylvania Ave)                                           
Q488,Q,Q12,28,George Eagle Carr Community Garden,148th Street,0.121,DPR,Jamaica,Active,,,,,,,
Q489,Q,Q12,27,George Washington Carver Botanical Garden,109-13 156th Street,0.057,DPR,,Active,40.692461,-73.794877,11433,260,       ,          ,South Jamaica                                                              
NA,M,M12,10,George Washington High School,549 Audubon Avenue,NA,DOE,Washington Heights,W. 190th St & Ft. George-Amstersam Avenue,40.855954,-73.927051,10040,277,1076751,1021600018,Washington Heights North                                                   
NA,Q,Q13,0,P.S. 251Q,144-51 144th Road,0.138,DOE,Springfield Gardens,Arthur Street,,,,,,,
NA,B,B02,0,George Westinghouse HS - Marvin's Garden,"105 Johnson Street (Tech), Brooklyn, NY 11201",NA,DOE,Downtown Brooklyn,Jay & Johnson Street,40.694926,-73.986015,11201,13,3348041,3001310001,DUMBO-Vinegar Hill-Downtown Brooklyn-Boerum Hill                           
B415,B,B05,42,Georgia Avenue Community Garden,328 New Lots Avenue,0.036,DPR,East New York,Active,40.661178,-73.894558,11207,1128,3000000,3042970001,East New York (Pennsylvania Ave)                                           
B436,B,B16,42,Gethsemane Garden,144 Newport Street,0.046,DPR,Brownsville,Active,40.659215,-73.909847,11212,916,3082592,3036130028,Brownsville                                                                
B468,B,B05,37,Glenmore Hendrix Block Assoc.,555 Glenmore Avenue,0.032,DPR,East New York,Active,40.674105,-73.88988,11207,1152,3000000,3039780035,East New York                                                              
NA,X,X09,,Glover Street Community Garden,"1642 Glover Street, Bronx NY 10462",NA,NYRP,,Intersection of Castle Hill & Glover Street,,,,,,,
B469,B,B05,42,Good Shepherd's Community Group,555-557 Shepherd Avenue,0.114,DPR,East New York,Active,40.670738,-73.879951,11208,1164,3089843,3040530010,East New York                                                              
B428,B,B04,,Goodwin Gardens,46 - 62 Goodwin St.,0.348,DPR,,,,,,,,,
B470,B,B04,37,Granite Street Block Association,28-32 Granite Street,0.172,DPR,Bushwick,Active,40.682511,-73.907811,11207,405,3000000,3034610018,Bushwick South                                                             
NA,X,X04,16,Grant Avenue Garden,1062 Grant Avenue,0.058,TPL,,E. 165th & E. 166th Streets,40.830303,-73.916893,10456,18101,2000000,2024480011,East Concourse-Concourse Village                                           
B058A,B,B01,33,Green Dome,229 North 12th Street,NA,DPR,Greenpoint,Active,40.719516,-73.952969,11211,515,       ,          ,North Side-South Side                                                      
B471,B,B05,37,Green Gems,947-953 Glenmore Avenue,0.494,DPR,East New York,Active,40.676272,-73.875077,11208,1196,3000000,3041910047,East New York                                                              
NA,B,B06,38,Green Space @ President Street,222 5th Avenue,0.045,TPL,Park Slope,At President Street,40.676008,-73.980745,11215,133,3000000,3009550049,Park Slope-Gowanus                                                         
B472,B,B03,36,Greene Avenue United Neighbors Association,490 Greene Avenue,0.046,DPR,,Active,40.688329,-73.951722,11216,243,3000000,3017970057,Bedford                                                                    
Q045A,Q,Q02,26,"LIC Comm. Gardens, Inc.",S/S 49th Avenue./W/O Vernon Boulevard.,0.172,DPR,Long Island City,Active,,,,,,,
NA,B,B02,35,Greene Garden,2 South Portland Avenue,0.084,TPL,,At DeKalb Avenue,40.689322,-73.975044,11217,33,3000000,3020990043,Fort Greene                                                                
B484,B,B05,37,Gregory's Garden (P.S. 158 Memorial Garden),"444,448 Warwick Avenue",0.057,DPR,East New York,Active,,,,,,,
NA,B,B03,,Halsey Ralph and Howard Garden,774 Halsey St.,NA,HPD,,,40.684918,-73.922702,11233,377,3039988,3014930001,Stuyvesant Heights                                                         
B473,B,B03,36,Hancock T & T Block Association,322-324 Hancock Street,0.081,DPR,,Active,40.683344,-73.942924,11216,267,3000000,3018400016,Bedford                                                                    
B527,B,B05,,Hands & Heart (New Lots Urban Farm),New Lots Avenue,NA,DPR,East New York,Active,,,,,,,
X118A,X,X09,18,Harding Park Beautification Project,155 Harding Park,1.16,DPR,,Active,40.807736,-73.857874,10473,2,       ,          ,Soundview-Castle Hill-Clason Point-Harding Park                            
M363,M,M11,9,Harlem Rose Garden,4-8 E 129th Street,0.136,DPR,,Active,40.808821,-73.9401,10035,206,1000000,1017530168,Central Harlem North-Polo Grounds                                          
M297,M,M10,9,Harlem Success Garden - P.S. 175/I.S. 275,116 - 122 West 134th Street,0.25,DPR,Harlem,Active,40.813777,-73.942176,10030,226,1000000,1019180046,Central Harlem North-Polo Grounds                                          
NA,M,M10,21,Harlem Village Green,52 W 129th Street,0.046,PRI,Harlem,,40.809753,-73.94231,10027,208,1000000,1017260064,Central Harlem North-Polo Grounds                                          
NA,B,B03,36,Hart Street Community Garden,169-171 Hart Street,0.092,TPL,Bed-Stuy,Tompkins & Throop,40.693662,-73.94457,11206,261,3000000,3017680066,Bedford                                                                    
B474,B,B03,36,Hart to Hart,104-108 Hart Street,0.332,DPR,Bed-Stuy,Active,40.693312,-73.947474,11206,261,3000000,3017710020,Bedford                                                                    
B400,B,B03,36,Hattie Carthan Community Garden,654 Lafayette Avenue/363-365 Clifton Place,0.117,DPR,Bed-Stuy,Active,,,,,,,
NA,B,B01,34,Heckscher Foundation For Children's Garden,134-136 Scholes Street,0.057,NYRP,Williamsburg,,40.708692,-73.944327,11206,505,3000000,3030430013,East Williamsburg                                                          
NA,B,B05,42,Hendrix Street Community Garden (Block Association of Hendrix Street),532 Hendrix Street,0.023,NYRP,East New York,Blake & Dumont Avenues,40.668485,-73.888314,11207,1160,3090008,3040580121,East New York                                                              
NA,M,M11,8,Herb Garden (111th St. Betterment Association),176 E 111th Street,0.08,NYRP,East Harlem,3rd & Lexington Avenues,40.795069,-73.943106,10029,172,1000000,1016380142,East Harlem South                                                          
B475,B,B05,37,Herbal Garden of East New York,582 - 590 Glenmore Avenue,0.23,DPR,East New York,Active,40.674263,-73.888701,11207,1150,3000000,3039960011,East New York                                                              
NA,M,M04,0,High School For Environmental Studies,444 W 56th Street NY NY 10019,NA,DOE,Midtown,9th & 10th Avenues,40.767791,-73.987531,10019,139,1026841,1010650001,Clinton                                                                    
B047A,B,B05,37,Highland Park Children's Garden,Jamaica Avenue,0.41,DPR,Highland Park,Active,,,,,,,
NA,B,B02,35,Hollenback Community Garden,460 Washington Avenue,0.158,TPL,Clinton Hill,Gates & Greene Avenue,40.685321,-73.965249,11238,199,3000000,3019620069,Clinton Hill                                                               
NA,M,M11,8,Home Depot Community Garden  (St. Mark's Monastery 1),415-421 East 117th Street,0.163,NYRP,East Harlem,1st Avenue & E 117th St,40.79645,-73.934347,10035,178,1000000,1017110008,East Harlem North                                                          
M371,M,M03,1,Hope Garden,193 East 2nd Street,0.046,DPR,East Village,Active,40.722289,-73.984094,10009,3002,1000000,1003970028,East Village                                                               
NA,M,M09,7,Hope Steven Garden,1656 Amsterdam Avenue,0.062,TPL,Hamilton Heights,142nd St & Hamilton Pl & Amsterdam Avenue,40.823414,-73.94895,10031,229,1000000,1020740029,Hamilton Heights                                                           
X346,X,X06,15,Hornaday Community Garden (Volky Flower Garden),851 Hornaday Avenue,0.115,DPR,,Active,,,,,,,
B528,B,B16,41,Howard Garden,750 Howard Avenue,0.219,DPR,Brownsville,Active,40.663636,-73.918957,11212,892,3000000,3035500043,Brownsville                                                                
B413,B,B16,37,Hull Street Community Garden Inc.,196 Hull Street,0.32,DPR,Ocean Hill / Brownsville,Active,40.679912,-73.907566,11233,369,       ,          ,Ocean Hill                                                                 
NA,B,B16,41,Hull Street Playground,145 Hull Street,0.057,NYRP,Bed-Stuy,Hopkinson & Rockaway Avenues,40.679465,-73.911615,11233,371,3000000,3015330049,Ocean Hill                                                                 
M344,M,M11,8,Humacao Community Garden,335 E 108th Street,0.11,DPR,East Harlem,Active,40.791109,-73.939592,10029,170,1089058,1016800021,East Harlem South                                                          
B408,B,B06,39,Human Compass Community  Garden Inc.,207-209 Columbia Street,0.073,DPR,Red Hook,Active,40.684958,-74.002726,11231,51,3000000,3003360010,Carroll Gardens-Columbia Street-Red Hook                                   
NA,M,M12,10,I.S. 143 - Penny Harvest Garden,511 & 516 West 182nd Street,0.08,DOE,Washington Heights,Amsterdam Avenue & Audubon Avenue (Fort George),,,,,,,
NA,X,X06,15,I.S. 193X,1919 Prospect Avenue,0.677,DOE,,,40.843546,-73.889755,10457,36901,2094582,2029510032,East Tremont                                                               
NA,M,M12,7,I.S. 218 - Swindler Cove Garden,Harlem River Drive/Dyckman Street,NA,DOE,Washington Heights,,,,     ,,1000000,1022552000,                                                                           
NA,B,B11,0,I.S. 227 - Shallow's School Yard Santuaries,6500 16th Avenue & 65th Street,NA,DOE,,Same,,,,,,,
NA,B,B05,42,I.S. 311 - The Essence School,"800 Van Siclen Avenue, Brooklyn, NY 11207",NA,DOE,,Linden Blvd.,40.66011,-73.885387,11207,1104,3097675,3043490050,East New York                                                              
NA,B,B12,39,I.S. 62 - The Greening of Ditmas,700 Cortelyou Road,NA,DOE,Kensington,East 7th & Ditmas,40.638686,-73.971651,11218,490,3126842,3053910001,Kensington-Ocean Parkway                                                   
NA,B,B01,33,I.S. 71,215 Heyward Street,NA,TPL/DOE,Williamsburg,Marcy Avenue & Harrision Street,40.703624,-73.953146,11206,529,3061064,3022270001,Williamsburg                                                               
NA,M,M12,0,I.S. 90 Miracle Sisters Garden,"21 Jumel Place, NY NY 10032",NA,DOE,Washington Heights,Edgecome Avenue - 167th/169th St,40.839305,-73.936159,10032,249,1076741,1021120058,Washington Heights South                                                   
NA,B,B11,44,I.S. 96,99 Avenue P,NA,DOE,,,40.60754,-73.984661,11204,430,3174076,3065950033,Bensonhurst East                                                           
NA,B,B08,41,Imani II Garden (Schenectady Avenue Community Garden),87-91 Schenectady Avenue,0.092,HPD,Crown Heights,,40.676312,-73.933182,11213,309,3000000,3013420005,Crown Heights North                                                        
X314,X,X01,17,Isla Verde Garden,625 Wales Avenue,0.16,DPR,,Active,40.814909,-73.906522,10455,73,2127170,2026430050,Melrose South-Mott Haven North                                             
NA,X,X03,16,J.H.S. 120,890 Cauldwell Avenue,NA,DOE,,,40.822474,-73.907194,10456,185,2004496,2026310048,Morrisania-Melrose                                                         
NA,B,B02,35,J.H.S. 265,101 Park Avenue,2.712,DOE,,N. Portland/Flushing,40.696324,-73.97578,11205,211,3057942,3020280001,Fort Greene                                                                
M364,M,M11,8,Jackie Robinson Community Garden,103 East 122nd Street,0.058,DPR/HPD,,Active,40.803013,-73.940152,10035,196,1000000,1017710005,East Harlem North                                                          
X319,X,X03,16,Jackson Forest/Morrisania Concerned Citizens,722 & 736 Home Street,0.18,DPR,Morrisania,Active,,,,,,,
NA,X,X03,16,Jacqueline Denise Davis Garden,1022-1024 Boston Road (north of E 165th Street),0.223,TPL,,165th Street & Cauldwell Avenue,40.825997,-73.906723,10456,185,2000000,2026220037,Morrisania-Melrose                                                         
NA,X,X03,0,Jane Adams Vocational H.S. - 4 Seasons Garden,900 Tinton Avenue,NA,DOE,,163rd & E. 161st Street,40.821675,-73.903546,10456,133,2004807,2026680001,Morrisania-Melrose                                                         
NA,B,B03,36,Jane Bailey Memorial Garden,327-329 Greene Avenue,0.094,NYRP,,Franklin & Classon,40.687596,-73.958223,11238,233,3000000,3019530057,Bedford                                                                    
X320,X,X03,15,Jardin de la Familia,1507 Washington Avenue,0.32,DPR,,Active,40.837907,-73.903201,10457,169,2000000,2029030037,Claremont-Bathgate                                                         
NA,X,X03,17,Jardin la Roca/Rock Garden,160 Elton Avenue,NA,DPR,Melrose,East 159 & East 160th,,,,,,,
B477,B,B05,24,Jerome Gardens,447 Jerome Street,0.036,DPR,,Active,40.670461,-73.886004,11207,1162,3089738,3040460120,East New York                                                              
B478,B,B05,37,Jerry and the Senior Gents of E.N.Y.,349 Schenck Avenue,0.057,DPR,East New York,Active,40.672292,-73.888329,11207,1150,3000000,3040120004,East New York                                                              
B511,B,B16,1,Jes Good Rewards Children's Garden,155 Amboy Street,0.213,DPR,Brownsville,Active,40.667016,-73.91396,11212,902,3406857,3035180001,Brownsville                                                                
NA,X,X08,10,JFK High School - Enchanted Garden,JFK High School 99 Terrace View Avenue,NA,DOE,Marble Hill,Tibbet Avenue/ 230th Street,,,,,,,
NA,X,X12,15,Jim Mackey Eastchester Road Community Garden,E/S Eastchester Road & N/O E 222nd Street,0.046,NYRP,,,,,,,,,
R146,R,R01,49,Joe Holzka Community Garden,1161 Castleton Avenue,0.429,DPR,,Active,40.634234,-74.12114,10310,13302,5112951,5001970135,West New Brighton-New Brighton-St. George                                  
NA,Q,Q08,0,John Bowne High School,"63-25 Main Street  Flushing, NY 11367",2.296,DOE,,Reeves Avenue & Gravett Rd,40.738139,-73.824944,11367,809,4439900,4065070001,Kew Gardens Hills                                                          
NA,B,B06,38,John Jay High School,"237 7th Avenue.  Brooklyn, NY 11215",0.689,DOE,Park Slope,corner of 7th & 5th Street,40.669629,-73.979287,11215,155,3025510,3010820001,Park Slope-Gowanus                                                         
NA,B,B03,34,John the Baptist Community Center Inc.,10 Stuyvesant Avenue,0.076,TPL,,,40.696355,-73.93473,11221,287,3000000,3015860041,Stuyvesant Heights                                                         
B509,B,B05,37,Jordan Magic Garden - DPR,Belmont Ave & Van Siclen Ave,0.115,DPR,East New York,Active,,,,,,,
NA,X,X03,0,Jose Gonzalez House Community Garden,1175 Hoe Avenue,NA,PRI,,Home & E.167th Street,40.827899,-73.890901,10459,125,2117582,2027450030,Morrisania-Melrose                                                         
M351,M,M10,9,Joseph Daniel Wilson Memorial Gardens,219 W. 122nd Street,0.06,DPR,,Active,40.807407,-73.950588,10027,222,1000000,1019280023,Central Harlem South                                                       
M345,M,M03,2,Kenkeleba House Garden,212 E. 3rd Street,0.31,DPR,East Village,Active,40.722502,-73.982582,10009,2202,1000000,1003850011,Lower East Side                                                            
B398,B,B03,36,Kosciusko St. Comm. Pk./Learning Center,385-389 Kosciusko Street,0.185,DPR,Bed-Stuy,Active,40.692034,-73.93917,11221,281,3000000,3016010063,Stuyvesant Heights                                                         
X266A,X,X06,15,Krystal Community Garden,2085-2093 Vyse Avenue.,0.614,DPR,,Active,40.843482,-73.88086,10460,363,2118291,2031270070,East Tremont                                                               
NA,M,M11,8,La Casita,223 E. 119th Street,0.057,NYRP,East Harlem,2nd & 3rd Avenue,40.799606,-73.937894,10035,194,1000000,1017840011,East Harlem North                                                          
M383,M,M11,8,La Cuevita Community Garden,71 East 115th Street,0.057,DPR,East Harlem,Active,40.798797,-73.944151,10029,184,1000000,1016210030,East Harlem North                                                          
X145,X,X01,,La Finca Del Sur/ South Bronx Farmers,138th & Grand Concourse,0.255,DPR/MTA/DOT,,Active,,,,,,,
NA,B,B04,34,La Finea,1036 Flushing Avenue,NA,TPL,,Knickerbocker Avenue  & Vandervoort Pl.,40.704359,-73.929634,11237,427,3251846,3031550020,Bushwick North                                                             
X327,X,X04,16,La Isla,96-98 W. 163rd Street,0.11,DPR,Highbridge,Active,40.832115,-73.929249,10452,189,2000000,2025110065,Highbridge                                                                 
M373,M,M07,8,La Perla Garden,76 W. 105th Street,0.036,DPR,Upper West Side,Active,40.798286,-73.962719,10025,189,1000000,1018400061,Upper West Side                                                            
M325,M,M03,2,La Plaza Cultural-Armando Perez,632-650 E. 9th Street,0.64,DPR,East Village,Active,40.725815,-73.979248,10009,2602,1000000,1003910023,Lower East Side                                                            
NA,M,M02,2,LaGuardia Corner Community Garden,511 LaGuardia Place,0.08,DOT,Greenwich Village,Bleecker & Houston Streets.,40.727809,-73.999159,10012,5501,1008242,1005240009,West Village                                                               
X328,X,X04,16,Las Casitas Community Garden,1126 - 1140 Woodycrest Avenue,0.19,DPR,Highbridge,Active,40.835464,-73.925809,10452,199,2091252,2025090036,Highbridge                                                                 
X337,X,X01,17,Latinos Unidos,427 East 157th Street,0.116,DPR,,Active,40.821362,-73.914154,10451,69,2000000,2023790030,Melrose South-Mott Haven North                                             
NA,X,X05,0,Learning Tree,1885 University Avenue (behind Calvary Methodist Church),NA,PRI,,W. Burnside & W. Tremont,40.852536,-73.913333,10453,24501,2009056,2028790035,University Heights-Morris Heights                                          
B479,B,B03,19,Lefferts Place Block Association,162 Lefferts Place,0.068,DPR,,Active,40.6806,-73.957474,11238,227,3000000,3020200019,Clinton Hill                                                               
M346,M,M11,8,"Life Spire (CRMD, Inc.)",2015 Lexington Avenue,0.02,DPR,Harlem,Active,40.802809,-73.938552,10035,196,1000000,1017710121,East Harlem North                                                          
B480,B,B09,40,Lincoln Road Garden,316 Lincoln Road,0.065,DPR,,Active,40.661467,-73.952239,11225,800,       ,          ,Prospect Lefferts Gardens-Wingate                                          
NA,B,B06,33,Lincoln-Berkeley Comm. Garden,20 Lincoln Place,0.064,TPL,Park Slope,between 5th & 6th Street,40.677378,-73.978845,11217,131,3000000,3009500016,Park Slope-Gowanus                                                         
NA,Q,Q12,27,Linden Boulevard Community Garden,178th Street & Linden Boulevard,0.013,NYRP,,At traingle 115th Avenue,,,,,,,
NA,B,B04,34,Linden-Bushwick Garden,113 Linden Street,0.244,PRI,Bushwick,Broadway & Bushwick Avenues,40.693162,-73.919649,11221,417,3076110,3033230060,Bushwick South                                                             
NA,M,M11,9,Little Blue House,1675 Madison Avenue,0.024,HPD,East Harlem,111 Street,40.796976,-73.947034,10029,17402,1000000,1016170122,East Harlem South                                                          
M326,M,M03,1,Liz Christy Garden,110 E Houston Street,1.09,DPR,Lower East Side,Active,40.723832,-73.991576,10002,3602,1000000,1004560001,East Village                                                               
NA,Q,Q01,0,Long Island City Roots Community Garden,47th Avenue.,NA,MTA,,29th & 30th Streets,,,,,,,
M357,M,M03,,Los Amigos,221 East 3rd Street,0.061,DPR,Lower East Side,Active,40.722453,-73.982423,10009,2601,1088347,1003860060,Lower East Side                                                            
NA,M,M11,8,Los Amigos Garden,326 Pleasant Avenue,0.045,NYRP,East Harlem,,40.796043,-73.932422,10035,178,1076407,1017160050,East Harlem North                                                          
M361,M,M03,2,Lower East Side Ecology Center,213 E. 7th Street,0.15,DPR,East Village,Active,40.724508,-73.979851,10009,2602,1000000,1003900046,Lower East Side                                                            
NA,M,M03,1,Lower East Side People Care,25 Rutgers Street,0.046,TPL,Lower East Side,Henry & Madison,40.712962,-73.990026,10002,6,1000000,1002710063,Lower East Side                                                            
NA,M,M03,0,M.S. 131,"100 Hester Street  NY, NY 10002",0.018,DOE,Lower East Side,Forsyth & Eldridge,40.716553,-73.993092,10002,16,1082489,1003010003,Chinatown                                                                  
NA,X,X11,13,M.S. 144,2545 Gunther Avenue,0.459,DOE,,,40.863735,-73.83607,10469,310,2053518,2044930001,Allerton-Pelham Gardens                                                    
NA,Q,Q09,0,M.S. 210 - YMCA Beacon Center Garden,"93-11 101st Street, Ozone Park, NY 11416",NA,DOE,Ozone Park,93rd & 94th streets,,,,,,,
NA,B,B08,35,M.S. 340,227 Sterling Place,NA,DOE,Prospect Heights,Corner Vanderbuilt & Flatbush Avenue,40.676094,-73.97038,11238,163,3029060,3011640057,Prospect Heights                                                           
NA,B,B09,41,M.S. 391 Mahalia Jackson,790 East New York Avenue,NA,DOE,,,40.662447,-73.936382,11203,876,3107129,3048060001,Prospect Lefferts Gardens-Wingate                                          
NA,M,N/A,0,M.S. 54 - Booker T Washington Garden,103 West 108th Street,NA,DOE,East Harlem,Columbus & Amsterdam Avenue,40.80069,-73.962238,10025,193,1056004,1018630026,Morningside Heights                                                        
NA,B,B09,40,M.S. 61 -  Atwell,400 Empire Boulevard.,NA,DOE,,,40.664007,-73.94922,11225,329,3337872,3013160015,Prospect Lefferts Gardens-Wingate                                          
B499,B,B03,41,Madison Community GreenThumb Garden,894 Madison Street,0.057,DPR,,Active,40.687995,-73.922006,11221,375,3000000,3014830027,Stuyvesant Heights                                                         
B481,B,B04,37,Madison Square Garden,1262-1264 Madison Street,0.165,DPR,,Active,40.694952,-73.913174,11221,435,3000000,3033700025,Bushwick North                                                             
NA,B,B04,34,Madison Street Association,974 Madison Street,0.041,NYRP,,,40.688959,-73.919063,11221,397,3000000,3033660023,Bushwick South                                                             
B482,B,B03,36,Madison Street Block Association,88-90 Madison Street,0.039,DPR,,Active,40.684145,-73.955485,11216,229,3000000,3019900014,Clinton Hill                                                               
NA,M,M09,7,Maggies Garden,564 West 149th Street,0.075,NYRP,Washington Heights,Amsterdam & Broadway,40.828472,-73.947418,10031,233,1000000,1020800058,Hamilton Heights                                                           
M327,M,M11,8,Maggies Garden (formerly Ebenezer Wesleyan Methodist Church Garden),1574 Lexington Avenue,0.057,DPR,East Harlem,Active,40.788624,-73.948933,10029,166,1000000,1016280015,East Harlem South                                                          
NA,M,M11,8,Magic Garden,1665-71 Park Avenue,0.207,HPD,East Harlem,117-118th Street,40.800245,-73.942524,10035,182,1000000,1016450003,East Harlem North                                                          
NA,Q,Q03,21,Malcom X Day Care Center,111-26 Northern Boulevard.,0.046,TPL,,111th ST & 112th ST,40.757942,-73.858287,11368,381,4000000,4017260014,North Corona                                                               
NA,B,B08,36,MaMa Dee's Garden,1397 Bedford Avenue,0.072,TPL,Crown Heights,,40.675251,-73.953404,11216,221,3000000,3012250010,Crown Heights North                                                        
B483,B,B05,37,Manleys Place,2539 Pitkin Avenue,0.28,DPR,East New York,Active,40.674461,-73.878498,11208,1192,3000000,3040070040,East New York                                                              
NA,X,X09,17,Manor Avenue Seniors Garden,1025 Manor Avenue,0.057,TPL,,Bruckner Blvd & Watson,40.824911,-73.875459,10472,5001,2023551,2037160057,Soundview-Bruckner                                                         
B510,B,B16,41,Marcus Garvey Tenants Association,Strauss Street/N/O Pitkin Avenue,0.23,DPR,Brownsville,Active,,,,,,,
M297A,M,M10,9,Margrichantie Memorial Garden,155-159 W. 133rd Street,0.171,DPR,,Active,40.813563,-73.943564,10030,226,1000000,1019180011,Central Harlem North-Polo Grounds                                          
NA,X,X10,0,Maritime Academy @ P.S. 10,"2770 Lafayette Avenue, Bronx, NY 10465",NA,DOE,Schuylerville,Brinsmade Avenue & Cross Bronx Expressway,,,     ,,2080231,2055470001,                                                                           
NA,Q,Q03,21,McIntosh Neighborhood Assoc.,S/E/C 100th Street & McIntosh Street,0.127,TPL,,27th Avenue & 25th Avenue,,,,,,,
Q493,Q,Q12,28,McKinleys Childrens Garden,108-56 Union Hall Street,0.091,DPR,Jamaica,Active,40.695304,-73.791536,11433,254,4000000,4101490070,South Jamaica                                                              
NA,B,B16,16,McLeods Community Garden (formerly Powell Street Block Association - Liberty Ave),130 Liberty Avenue,0.257,NYRP,,Sackman & Powell Streets.,40.673067,-73.905437,11212,908,3326764,3036940016,Brownsville                                                                
NA,X,X01,17,Members Group (Dalia Group Garden),724 Courtlandt Avenue,0.057,NYRP,Melrose,E 156th & E 157th,40.820733,-73.917663,10451,69,2001728,2024020004,Melrose South-Mott Haven North                                             
NA,Q,Q12,27,"Merrick-Marsden Neighbors Association., Inc.",11818-11820 Merrick Boulevard.,0.046,TPL,,119th Avenue,,,,,,,
M105A,M,M02,3,Mfinda Kalunga Garden,Rivington Street Crossover (in Sarah Roosevelt Park),NA,DPR,East Village,Active,,,,,,,
NA,X,X02,18,Mildred T. Rhodebeck Garden (Garden of Eden),927 Faile Street,0.193,NYRP,,N/W corner of Bruckner Boulevard & Faile Street,40.821522,-73.889293,10459,119,2125430,2027460053,Hunts Point                                                                
X329,X,X06,15,Miracle Garden - Bronx,Marmion Avenue,0.11,DPR,,Active,,,,,,,
M314,M,M03,1,Miracle Garden - Manhattan,194-196 East 3rd Street,0.12,DPR,East Village,Active,40.722917,-73.983563,10009,3002,1000000,1003980027,East Village                                                               
NA,M,M09,7,Mo Pals,545 West 147th Street,0.039,TPL,Hamilton Heights,Amsterdam & Broadway,40.827075,-73.947928,10031,233,1000000,1020790011,Hamilton Heights                                                           
M347,M,M07,8,Mobilization For Change Community Garden,955 Columbus Avenue,0.043,DPR,Upper West Side,Active,40.799757,-73.962476,10025,193,1000000,1018420061,Morningside Heights                                                        
X342,X,X03,,Model T,1312 Bristow Street.,0.272,DPR,,Active,40.831037,-73.894748,10459,153,2126571,2029650199,Crotona Park East                                                          
M348,M,M12,7,Morris Jumel Community Garden,455-457 W 162nd Street,0.1,DPR,Washington Heights,Active,40.835442,-73.939039,10032,24301,1000000,1021100057,Washington Heights South                                                   
X275,X,X04,14,Mosaic Center (Success Garden),1315-31 Odgen Avenue,0.27,DPR,,Active,,,,,,,
NA,B,B03,0,Mt. Lebanon Baptist Church,354 Stuyvesant Avenue.,NA,PRI,Bed-Stuy,McDonough (corner) & Macon,40.682591,-73.931996,11233,297,3046835,3016700049,Crown Heights North                                                        
B514,B,B05,42,Nehemiah Ten GreenThumb Block Association,565 Barbey Street,0.275,DPR,East New York,Active,40.668571,-73.886439,11207,1162,3000000,3040610018,East New York                                                              
NA,X,X01,17,Neighborhood Advisory Committee,360-362 E. 151st Street,0.135,TPL,Melrose,Courtlandt & Melrose Avenues,40.817871,-73.918523,10455,65,2000000,2023970013,Melrose South-Mott Haven North                                             
NA,M,M09,7,Senior Citizens Sculpture Garden Park,West 153rd Street,0.406,DEP,Hamilton Heights,Street Nicholas & Amsterdam Avenues,,,,,,,
NA,B,B08,36,Neighborhood Community Garden,1123 Saint Marks Avenue,0.073,DPR,,Schenectady & Utica Avenues,40.674258,-73.932456,11213,309,3000000,3013540080,Crown Heights North                                                        
M338,M,M11,8,Neighbors of Vega Baja,E. 109th Street,0.072,DPR,East Harlem,Active,,,,,,,
M349,M,M10,9,New 123rd Street Block Association,"112,114 & 116 W. 123rd Street",0.14,DPR,Harlem,Active,,,,,,,
B518,B,B03,41,New Age Pride (Victory Garden's Group),953 Gates Avenue,0.057,DPR,Bed-Stuy,Active,40.688836,-73.92789,11221,387,3000000,3016320046,Stuyvesant Heights                                                         
NA,B,B03,36,New Harvest (Vrn/Mrcy/Tmpks B.A.),"125,123,121 Vernon Avenue",0.138,HPD,Bed-Stuy,,,,,,,,
X241,X,X02,18,New Hoe Avenue Garden,958 New Hoe Avenue,0.23,DPR,,Active,,,,,,,
B449,B,B05,42,New Vision Garden,590-594 Schenck Avenue.,0.321,DPR,East New York,Active,40.666227,-73.886797,11207,1124,3414689,3040750140,East New York                                                              
B513,B,B16,42,Newport Gardens,823 Rockaway Avenue,0.138,DPR,Brownsville,Active,40.659785,-73.908199,11212,916,3000000,3036030007,Brownsville                                                                
NA,B,B01,0,Nicks Garden,Lorimer and Bayard Streets,NA,DPR,,,,,,,,,
X273,X,X03,15,North LUBAs Community Rock Garden,1665 Longfellow Avenue,NA,DPR,,Active,40.834816,-73.885082,10460,161,2010886,2030020047,Crotona Park East                                                          
NA,B,B01,33,Northside Community Garden,599 Driggs Avenue,0.034,TPL,Williamsburg,c/o Driggs & N. 5th Street,40.716007,-73.957527,11211,519,3000000,3023370001,North Side-South Side                                                      
NA,M,M04,3,Oasis Community Garden (Hellâs Kitchen),511-519 W. 52nd Street,0.115,HPD,Hell's Kitchen,10th & 11th Avenue,40.766411,-73.991989,10019,135,1087777,1010817502,Clinton                                                                    
B425,B,B01,34,Olive Garden,21-25 Olive Street,0.179,DPR,,Active,40.713243,-73.938822,11211,481,3000000,3029200033,East Williamsburg                                                          
M321A,M,M03,2,Open Road Park (LES),404-16 East 12th Street,0.459,DPR,East Village,Active,40.729801,-73.983057,10009,34,1000000,1004390010,East Village                                                               
M354,M,M03,2,Orchard Alley,350-54 East 4th Street,0.224,DPR,East Village,Active,40.721472,-73.978275,10009,2601,1000000,1003730027,Lower East Side                                                            
B024,B,B01,,Orient Grove,Metropolitan Ave. and Orient Ave.,0.149,DPR,,,,,,,,,
B521,B,B05,37,Oriental Garden,369-371 Barbey Street & 326-328 Jerome St,0.188,DPR,East New York,Active,40.673773,-73.887768,11207,1150,       ,          ,East New York                                                              
M365,M,M10,9,Our Little Green Acre,275-277 West 122nd Street,0.052,DPR,,Active,40.807872,-73.951693,10027,222,1000000,1019280105,Central Harlem South                                                       
NA,X,X07,10,P.S. / M.S. 20,3050 Webster Avenue,0.008,DOE,,East 220 & Mosholu Prky,40.870002,-73.878875,10467,425,2086851,2033300001,Norwood                                                                    
NA,B,B06,39,P.S. 107 - Rainbow Garden,1301 8th Avenue,0.023,DOE,,,40.663251,-73.981289,11215,167,3026517,3011010001,Park Slope-Gowanus                                                         
NA,M,M04,0,P.S. 11,320 West 21st Street  NY NY 10011,NA,DOE,Chelsey,8th & 9th Avenue,40.744349,-74.000253,10011,89,1013260,1007440024,Hudson Yards-Chelsea-Flatiron-Union Square                                 
NA,M,M04,3,P.S. 111,440 W. 53rd Street,NA,DOE,Hell's Kitchen,,40.765878,-73.988823,10019,133,1026740,1010620003,Clinton                                                                    
NA,M,M12,10,P.S. 115M,586 W. 177th Street,0.161,DOE,,,40.846542,-73.935205,10033,261,1063228,1021330040,Washington Heights South                                                   
NA,B,B18,45,P.S. 119,3829 Avenue K,NA,DOE,,,40.625662,-73.938265,11210,734,3215816,3077860001,Flatlands                                                                  
NA,Q,Q07,20,P.S. 120Q - Millenium Garden,58-01 136th Street,0.01,DOE,Flushing,58th & 59th Streets,40.745526,-73.829309,11355,80301,4139491,4063730001,Queensboro Hill                                                            
NA,B,B16,41,P.S. 137,121 Saratoga Avenue,0.735,DOE,Bed-Stuy,,40.682458,-73.917088,11233,373,3040878,3015100001,Ocean Hill                                                                 
NA,X,X09,18,P.S. 138X,2060 Lafayette Avenue,1.345,DOE,,,40.822665,-73.853366,10473,74,2022289,2036090016,Soundview-Castle Hill-Clason Point-Harding Park                            
NA,Q,Q06,0,P.S. 139Q,93-06 63rd Drive,NA,DOE,,,40.72814,-73.863582,11374,693,4072457,4030950050,Rego Park                                                                  
B442,B,B05,37,P.S. 149 - Artsy Bloom Community Garden,365-67 Wyona Street,0.057,DPR,East New York,Developed,40.669564,-73.892328,11207,1158,3000000,3037750024,East New York (Pennsylvania Ave)                                           
NA,B,B16,37,P.S. 155,1355 Herkimer Street,0.689,DOE,,,40.677415,-73.908734,11233,369,3042263,3015520043,Ocean Hill                                                                 
NA,X,X04,16,P.S. 156 Garden,750 Concourse Village West,0.046,DOE,,,40.823174,-73.923326,10451,61,2002454,2024430079,East Concourse-Concourse Village                                           
NA,B,B12,39,P.S. 164 - Stepping Into the New Millenium,4211 14th Avenue,0.069,DOE,,,40.637486,-73.985955,11219,232,3135976,3056000001,Borough Park                                                               
NA,B,B12,44,P.S. 180 - Our Secret Garden,5601-23 16th Avenue  Brooklyn NY 11204,NA,DOE,,,40.627029,-73.989672,11204,470,3130809,3054920001,Borough Park                                                               
NA,B,B17,45,P.S. 181K - Garden Club,1023 New York Avenue,NA,DOE,,,40.648215,-73.946374,11203,856,3327776,3049040010,East Flatbush-Farragut                                                     
NA,M,M10,9,P.S. 185/208M,20 W. 112th Street,NA,DOE,Upper West Side,5th & Lenox Avenue,40.798511,-73.949251,10026,186,1051410,1015950015,Central Harlem South                                                       
X330,X,X03,16,P.S. 186 - Day Treatment Program,745 Jennings Street,0.06,DPR,,Active,40.831804,-73.898396,10459,151,2000000,2029620062,Morrisania-Melrose                                                         
NA,B,B01,34,P.S. 19K - Kid's Garden,"325 South 3rd Street Brooklyn, NY 11211",NA,DOE,Williamsburg,Keap & Rodney,40.709647,-73.95465,11211,527,3063188,3024230001,North Side-South Side                                                      
NA,Q,Q04,0,P.S. 19Q,"99th Street and Roosevelt Avenue.  Queens, NY 11368",NA,DOE,Corona,"98th, 41st Avenue",,,,,,,
NA,M,M10,0,P.S. 200,2599 7th Avenue.  NY NY 10039,NA,TPL/DOE,Central Harlem,150th St,40.824714,-73.936841,10039,236,1060198,1020160100,Central Harlem North-Polo Grounds                                          
NA,M,M10,9,P.S. 207/149,34 W. 118th Street,NA,DOE,,,40.80247,-73.946716,10026,190,1051434,1016010001,Central Harlem South                                                       
NA,B,B17,45,P.S. 208,"4801 Avenue D  Brooklyn, NY 11234",NA,TPL/DOE,,E 48th & 49th Street,40.642031,-73.931151,11203,840,3105680,3047690025,East Flatbush-Farragut                                                     
NA,X,X05,0,P.S. 226 Garden,1950 Sedgwick Avenue,NA,DOE,,corner of West Burnside & Sedgwick,40.856586,-73.916198,10453,249,2096465,2032220100,University Heights-Morris Heights                                          
NA,X,X06,15,P.S. 23,2175 Washington Avenue,NA,DOE,,,40.853423,-73.894463,10457,395,2090472,2030370079,Claremont-Bathgate                                                         
NA,B,N/A,0,P.S. 235,"525 Lenox Road, Brooklyn NY 11203",NA,DOE,North Flatbush,E 39th st,40.654704,-73.941089,11203,814,3107846,3048440001,East Flatbush-Farragut                                                     
NA,M,M10,0,P.S. 242,"134 West 122nd Street, NY, NY 10027",NA,DOE,Central Harlem,"121st & 122nd, 6th & 7th Avenue",40.8063,-73.948013,10027,220,1057683,1019060011,Central Harlem South                                                       
NA,B,B08,0,P.S. 243 - Weeksville School,1580 Dean Street,NA,DOE,Crown Heights,Troy Avenue & Bergen Street,40.676094,-73.935688,11213,309,3035761,3013470001,Crown Heights North                                                        
NA,X,X06,15,P.S. 246,2641 Grand Concourse,NA,DOE,,,40.865593,-73.894758,10468,401,2013830,2031680027,Bedford Park-Fordham North                                                 
NA,B,B11,44,P.S. 247K,7000 21st Avenue,0.04,DOE,,,40.612273,-73.986713,11204,258,3157466,3061740036,Bensonhurst West                                                           
NA,B,B14,40,P.S. 249,18 Marlborough Road,NA,DOE,,,40.64971,-73.966046,11226,506,3116438,3050750001,Flatbush                                                                   
NA,B,B01,34,P.S. 250,108 Montrose Avenue,0.005,DOE,,,40.707104,-73.945475,11206,505,3071199,3030600001,East Williamsburg                                                          
NA,B,B17,41,P.S. 268,133 E. 53rd Street,0.035,DOE,,,40.657131,-73.928018,11203,866,3100292,3046230028,Rugby-Remsen Village                                                       
NA,B,B06,0,P.S. 27 / M.S. 826,27 Huntington Street Brooklyn. NY 11231,NA,DOE,,Hicks Street & Columbia Street,40.677564,-74.005166,11231,59,3008342,3005250001,Carroll Gardens-Columbia Street-Red Hook                                   
NA,X,X01,8,P.S. 30X,S/E/C Brook Avenue & E. 141 Street,0.207,DOE,,,,,,,,,
NA,B,B14,45,P.S. 315K,2310 Glenwood  Rd.,NA,DOE,,,40.633232,-73.954655,11210,772,3205780,3075510026,Flatbush                                                                   
M113,M,M03,2,P.S. 361 - The Children's Garden,East 12th Street,0.028,DPR,East Village,Active,,,,,,,
NA,B,B06,39,P.S. 372@834 / The Children's School,219 First Street,NA,DOE,,Carrol Street,40.675628,-73.985634,11215,119,3395604,3004550001,Park Slope-Gowanus                                                         
NA,X,X05,0,P.S. 396 / M.S. 390 X,"1930 Andrews Avenue, Bronx NY 10453",NA,TPL/DOE,Kingbridge Heights,Burnside & University,40.854701,-73.913197,10453,24502,2014692,2032160002,University Heights-Morris Heights                                          
NA,B,B17,40,P.S. 399,2707 Albemarle Road,0.505,DOE,,,40.648044,-73.951891,11226,824,3117396,3051110001,Erasmus                                                                    
NA,M,M12,0,P.S. 4 - Duke Ellington Harmony Garden,500 West 160th Street,NA,DOE,Harlem,,40.834899,-73.941085,10032,245,1062792,1021180022,Washington Heights South                                                   
NA,B,B05,42,P.S. 4 at P.S. 843,530 Stanley Avenue,0.023,DOE,East New York,,40.657212,-73.888852,11207,1104,3324010,3043690001,East New York                                                              
NA,Q,Q12,28,P.S. 48Q,155-02 108th Avenue,NA,DOE,,,40.694119,-73.797003,11433,254,4216099,4101440042,South Jamaica                                                              
NA,Q,Q05,0,P.S. 49Q,79-15 Penelope Avenue,0.007,DOE,,Corner of Penelope & 79th Street,40.719071,-73.875437,11379,663,4069253,4029900045,Middle Village                                                             
B417,B,B05,37,P.S. 4K - Paradise Garden,676-696 Glenmore Avenue,0.3,DPR,East New York,Active,40.674778,-73.885228,11207,1150,3000000,3040000010,East New York                                                              
NA,M,M04,0,P.S. 51,520 West 45th Street  NY  NY 10036,NA,DOE,Clinton Hill,10th & 11th Avenue,40.762061,-73.995307,10036,129,1000000,1010730040,Clinton                                                                    
B485,B,B05,42,P.S. 53,522 Bradford Street,0.062,DPR,East New York,Active,40.666063,-73.890503,11207,1126,3000000,3038090038,East New York (Pennsylvania Ave)                                           
NA,B,B14,40,P.S. 6 - Operation Push,2242-62 Bedford Avenue,NA,DOE,,,40.649347,-73.955793,11226,794,3117230,3051030079,Erasmus                                                                    
NA,X,N/A,0,P.S. 63 X,"1261 Franklyn Avenue.  Bronx, NY 10456",NA,DOE,Morrisania,169th & Fulton Avenue,,,,,,,
NA,X,X01,17,P.S. 65 - Garden Club,677 East 141st,0.034,DOE,,Cypress & Powers,,,,,,,
NA,B,B02,35,P.S. 67 - Charles Dorsey School,51 St. Edwards Street,NA,DOE,,Between Park & Mrytle,40.695633,-73.978215,11205,2901,3332507,3020390002,Fort Greene                                                                
NA,B,B02,33,P.S. 753K @ The Bklyn. School for Career Development,372 Schermerhorn Street,0.032,DOE,Boerum Hill,475 State & 3rd Avenue,40.686419,-73.979444,11217,39,3000600,3001740009,DUMBO-Vinegar Hill-Downtown Brooklyn-Boerum Hill                           
M356,M,M10,9,P.S. 76 - Garden of Perserverance,203 W. 120th Street   NY NY 10027,0.057,DPR,Harlem,Active,40.80598,-73.951098,10027,220,1000000,1019260027,Central Harlem South                                                       
NA,B,B06,33,P.S. 77K @ P. S 902K,62 Park Place,0.023,DOE,Park Slope,6th & 5th Avenue,40.678983,-73.976497,11217,12902,3259250,3009410050,Park Slope-Gowanus                                                         
NA,Q,N/A,0,P.S. 86Q,87-41 Parsons Boulevard.,NA,DOE,,87th Avenue,40.708898,-73.803938,11432,448,4438678,4097740001,Briarwood-Jamaica Hills                                                    
NA,Q,Q05,26,P.S. 9 - Enis Garden,58-74 57th Street,NA,DOE,,,40.718935,-73.912208,11378,535,4059130,4026310106,Maspeth                                                                    
NA,B,B08,35,P.S. 9 - Winston Robins Memorial Garden,"80 Underhill Avenue  Broolyn, NY   11328",NA,DOE,Prospect Heights,Bergan & Street Marks,40.678297,-73.965541,11238,205,3028204,3011450026,Prospect Heights                                                           
NA,X,X10,0,P.S. 9 X,"230 East 183rd Street, Bronx NY 10458",NA,DOE,Grand Concourse,Ryer & Valentine Avenue,40.857067,-73.898936,10458,38301,2013561,2031500010,Fordham South                                                              
NA,Q,Q10,28,P.S. 96Q - Garden of Hope,130-01 Rockaway Boulevard.,NA,DOE,So. Ozone Park,130th & Lincoln,40.674991,-73.808371,11420,180,4253028,4116940027,South Ozone Park                                                           
NA,M,M12,10,P.S./I.S. 176,4862 Broadway,NA,DOE,,W 204 / Academy St,40.866706,-73.923948,10034,291,1064900,1022340007,Marble Hill-Inwood                                                         
NA,M,N/A,0,P.S./I.S. 217 - Rooselvelt Island School,645 Main Street,NA,DOE,Roosevelt Island,,40.763894,-73.947916,10044,23802,1084848,1013730001,Lenox Hill-Roosevelt Island                                                
NA,B,B02,33,Pacific High School,112 Schermerhorn Street,NA,DOE,Boerum Hill,Boerum Place & Smith Streets,40.690145,-73.989132,11201,43,3000533,3001690009,DUMBO-Vinegar Hill-Downtown Brooklyn-Boerum Hill                           
X285,X,X01,8,Padre Plaza (Success Garden),541-545 E. 139th Street,0.367,DPR,,Active,40.807883,-73.917885,10454,39,2000000,2022670063,Mott Haven-Port Morris                                                     
NA,B,B05,37,Pagans Garden (Linwood Street Block Association),992 Sutter Avenue,0.034,HPD,,At Linwood Street,40.671292,-73.882217,11208,1164,3089804,3040500121,East New York                                                              
NA,X,X01,17,Palmas del Caribe (Eagle Avenue Community Garden),869 Eagle Avenue,0.241,TPL,Melrose,,40.822057,-73.908481,10456,71,2125885,2026190018,Melrose South-Mott Haven North                                             
NA,M,M11,8,Papos Garden,218-220 E. 119th Street,0.034,TPL,East Harlem,2nd & 3rd,40.799617,-73.937963,10035,188,1000000,1017830038,East Harlem North                                                          
NA,X,X02,18,Paradise on Earth Garden,1101-1105 Fox Street,0.252,NYRP,,East 167th Street,40.82664,-73.893877,10459,125,2117571,2027180052,Morrisania-Melrose                                                         
NA,M,M03,2,Parque De Tranquilidad,314-318 East 4th Street,0.082,TPL,East Village,Avenues C & D,40.722038,-73.97961,10009,2601,1000000,1003730010,Lower East Side                                                            
NA,X,X01,17,Passages Academy,511 E. 149th Street & 511 E. 150th Street,NA,DOE,,,40.81478,-73.914459,10455,71,2088127,2022760001,Melrose South-Mott Haven North                                             
NA,B,B03,41,Patchen Avenue United Block Association,49 Patchen Avenue,0.055,TPL,Bed-Stuy,,40.690708,-73.927603,11221,387,3000000,3016230004,Stuyvesant Heights                                                         
B500,B,B03,41,Patrick Van Doren Pocket Park,123 Malcolm X Avenue,0.039,DPR,Bed-Stuy,Active,,,,,,,
NA,R,R01,,Pavilion Horticultural Garden,Brownell Street #11,NA,PRI,,Brownell St & Tompkins St,,,,,,,
M367,M,M11,8,Peaceful Valley,50-52 East 117th Street,0.052,DPR,East Harlem,Active,40.800487,-73.943961,10035,184,1000000,1016220050,East Harlem North                                                          
M350,M,M03,2,Peachtree Garden,236-238 East 2nd Street,0.12,DPR,East Village,Active,40.72149,-73.98216,10009,2202,1000000,1003850052,Lower East Side                                                            
NA,Q,Q11,19,Pembroke Avenue Community Garden (Van Nostrand Court Garden),E/S Pembroke Avenue,0.095,NYRP,,N/O Little Neck Pkwy.,,,,,,,
NA,B,B04,34,People's Garden (Youth City Little League),1237-1241 Broadway,0.172,TPL,Bed-Stuy,Greene & Bushwick Avenues,40.691653,-73.925825,11221,395,3000000,3032830004,Bushwick South                                                             
B517,B,B16,,Phoenix Community Garden (formerly Somers Street),Corner of Fulton & Somers Street,NA,DPR,,Active,,,,,,,
M299,M,M11,8,Pleasant Village Community Garden,342-353 Pleasant Avenue. /502 E. 119th Street,0.38,DPR/HPD,East Harlem,Active,,,,,,,
B531,B,B03,,Plenty: Food For All,Hunterfly Place and Atlantic Avenue,0.062,DPR,,Active,,,,,,,
B504,B,B18,42,Ponderosa Garden,664 East 105th Street,0.092,DPR,,Active,40.649609,-73.897009,11236,974,3229489,3081730066,Canarsie                                                                   
NA,B,B02,33,Poplar Street Community Garden,Poplar Street,0.028,DOT,Brooklyn Heights,At Hicks St,,,,,,,
B509,B,B05,37,Poppa & Momma Jones Historical Garden,337 Van Siclen Avenue,0.138,DPR,East New York,Active,40.671728,-73.890057,11207,1152,       ,          ,East New York                                                              
B486,B,B16,42,Powell Street Block Association - Powell St,633 Powell Street,0.019,DPR,Brownsville,Active,40.658459,-73.901057,11212,920,3000000,3038580001,Brownsville                                                                
B516,B,B16,42,Powell Street Garden-Livonia,Powell Street,0.459,DPR,Brownsville,Active,,,,,,,
B426,B,B01,34,Powers Street Garden,276-278 Powers Street,0.115,DPR,,Active,40.712955,-73.939721,11211,481,3000000,3029220020,East Williamsburg                                                          
B487,B,B16,41,Preston Community Garden,1711 Park Place,0.58,DPR,Brownsville,Active,40.671827,-73.920811,11233,363,3000000,3014620057,Ocean Hill                                                                 
Q475,Q,Q06,29,Project Eden,Kessel Street,0.108,DPR,Forest Hills,Active,,,,,,,
B423,B,B01,,Project Roots Garden,94 - 110 Walton St.,0.172,DPR,,,40.702631,-73.948631,11206,507,3061348,3022500014,Bedford                                                                    
B506,B,B05,42,Prophecy Garden Church of God of Prophecy,43-69 Malta Street,0.505,DPR/HPD,East New York,Active,40.659475,-73.895603,11207,1130,3397031,3042950065,East New York (Pennsylvania Ave)                                           
B524,B,B08,35,Prospect Heights Community Farm,252-256 St. Marks Avenue,0.193,TPL,Prospect Heights,Active,40.678319,-73.967513,11238,205,3000000,3011520020,Prospect Heights                                                           
M384,M,M11,9,Pueblo Unido,1659 Madison Avenue,0.054,DPR,East Harlem,Active,40.796474,-73.9474,10029,17402,1000000,1016160053,East Harlem South                                                          
X317,X,X03,17,Rainbow Block Association.,379 East 159th Street,0.174,DPR,Melrose,Active,40.823086,-73.914947,10451,141,2000000,2024060029,Morrisania-Melrose                                                         
NA,B,B08,41,Ralph-Lincoln Service Center,1652-1654 St. John's Place,0.163,TPL,Brownsville,,40.670152,-73.923242,11233,359,3389921,3013870039,Crown Heights North                                                        
X325,X,X09,15,Randall Community Garden (Taylor Soundview Block Association),Randall Avenue,0.232,DPR,,Active,,,,,,,
B488,B,B03,36,Red Gate Garden,604 Marcy Avenue,0.086,DPR,Bed-Stuy,Active,40.693796,-73.948905,11206,253,3000000,3017660043,Bedford                                                                    
B126B,B,B07,,Red Hook Farm/Added Value,558 Columbia Street,NA,DPR,Red Hook,Active,40.672562,-74.008692,11231,53,3000000,3006070001,Carroll Gardens-Columbia Street-Red Hook                                   
B489,B,B01,34,Red Shed Garden (GREC),Humbolt Street,0.123,DPR,,Active,,,,,,,
M352,M,M03,2,Relaxation Garden (Suen Dragon Garden),209 Avenue B,0.063,DPR,East Village,Active,40.72859,-73.978637,10009,28,1000000,1003950008,Lower East Side                                                            
M316,M,M10,9,Rev. Linnette C. Williamson Memorial Park,65-67 W. 128th Street,0.057,PRI,West Harlem,Active,40.809144,-73.942758,10027,208,1089069,1017260011,Central Harlem North-Polo Grounds                                          
M071B,M,M12,7,RING Garden - Riverside Inwood Neighborhood Garden,1835 Riverside Drive,0.115,DPR,Inwood,Active,,,,,,,
X335,X,X07,15,Risse Street Community Garden (Triangle Park),2 East Mosholu Parkway,0.694,DPR,,Active,,,,,,,
X245,X,X06,,River Garden,1086 East 180th Street,0.44,DPR,West Farms,Active,40.842204,-73.876529,10460,220,2000000,2040030001,East Tremont                                                               
M072,M,M09,0,Riverside Valley Community Garden,Riverside Park/138th Street,0.115,DPR,Hamilton Heights,Active,,,,,,,
NA,X,X04,16,Roberto Clemente Community Garden,1272-1280 Shakespeare Avenue,0.254,TPL,Highbridge,Shakespeare Avenue & W 169th St,40.839017,-73.922729,10452,211,2000000,2025060087,Highbridge                                                                 
M375,M,M11,8,Rodale Pleasant Park Community Garden,437-39 East 114th Street/448-450 East 115th Street,0.225,NYRP/DPR,East Harlem,Active,,,,,,,
NA,B,B14,40,Rogers/Tilden/Veronica Place Block Association,2601-2603 Tilden Avenue.,0.158,TPL,,,40.646757,-73.952588,11226,794,3000000,3051280070,Erasmus                                                                    
M370,M,M03,2,Sam & Sadie Koenig Garden,237 E. 7th Street,0.04,DPR,East Village,Active,40.723877,-73.97835,10009,2602,1000000,1003770069,Lower East Side                                                            
B490,B,B13,47,Santos White Garden,2110 Mermaid Avenue,0.141,DPR,Coney Island,Active,40.576242,-73.988189,11224,326,3000000,3070580009,Seagate-Coney Island                                                       
X332,X,X02,17,Schomburg Satellite Academy H.S.,869 E 164th Street,0.032,DPR,Morrisania,Active,40.82331,-73.899259,10459,12901,2005219,2026900137,Longwood                                                                   
NA,Q,Q14,31,Seagirt Community Garden,3003 Seagirt Boulevard.,0.138,NYRP,Far Rockaway,B30th & B31st,40.595964,-73.763133,11691,992,4000000,4158060004,Hammels-Arverne-Edgemere                                                   
B530,B,B03,,Seasons of Vision,9-11 Rochester Avenue,0.083,DPR,,Active,40.678834,-73.927378,11233,299,3000000,3017030002,Crown Heights North                                                        
M332,M,M03,1,Secret Garden,293-297 East 4th Street,0.05,DPR,East Village,Active,40.722464,-73.980569,10009,2601,1000000,1003870040,Lower East Side                                                            
NA,B,B13,47,Senior Citizens Block Association of Mermaid Avenue,2917-2923 West 20th Street,NA,HPD,Coney Island,Mermaid & Surf Avenues,40.575997,-73.986807,11224,326,3000000,3070600047,Seagate-Coney Island                                                       
NA,M,M09,7,Serenity Gardens,522 West 146th Street,0.091,TPL,Hamilton Heights,,40.826254,-73.947965,10031,229,1000000,1020770043,Hamilton Heights                                                           
NA,B,B05,42,Sheffield South Block Association,673 Sheffield Avenue,0.087,TPL,East New York,,40.660557,-73.893175,11207,1128,3000000,3042980065,East New York (Pennsylvania Ave)                                           
NA,X,X04,16,Sheridan Manor Community Garden,1340 Sheridan Avenue,0.195,DOE,,,40.837275,-73.913574,10456,17902,2094533,2028300017,East Concourse-Concourse Village                                           
NA,X,X04,16,Sherman Avenue Community Garden,953-955 Sherman Avenue,0.11,TPL,,164th & 165th Streets,40.828252,-73.91911,10456,18302,       ,          ,East Concourse-Concourse Village                                           
B491,B,B05,37,Shield of Faith,79-85 Montauk Street,0.172,DPR,East New York,Active,,,,,,,
B502,B,B03,36,Shiloh Garden Inc.,323-325 Monroe Street,0.074,DPR,,Active,40.686076,-73.945381,11216,265,3000000,3018140045,Bedford                                                                    
B476,B,B16,41,Shma Yisrael,2084-90 Pacific Street,0.145,DPR,Bed-Stuy,Active,40.675795,-73.915903,11233,303,3000000,3014400012,Ocean Hill                                                                 
NA,B,B08,41,Society for Preservation of Weeksville,1688-1696 Bergen Street,0.351,DCA,,Troy & Utica Avenue,40.674829,-73.926867,11213,307,3389901,3013560120,Crown Heights North                                                        
NA,X,X01,17,South Bronx High School - Unity Garden,701 St. Ann's Avenue,0.023,DOE,Melrose,Westchester Avenue & 156th St,40.81825,-73.91103,10455,71,2001153,2023590240,Melrose South-Mott Haven North                                             
B519,B,B03,34,Spencer Street Community Garden,230A Spencer Street,0.043,DPR,Bed-Stuy,Active,40.691602,-73.954593,11205,241,3000000,3017620067,Bedford                                                                    
X345,X,X01,,St. Anns Block Garden Association,666-68 St. Ann's Avenue,0.029,DPR,,Active,40.817078,-73.911494,10455,75,       ,          ,Melrose South-Mott Haven North                                             
B492,B,B05,37,St. John Cantius Parish,476-484 New Jersey Avenue,0.183,DPR,East New York,Active,40.667535,-73.893737,11207,1156,3000000,3037890035,East New York (Pennsylvania Ave)                                           
NA,B,B08,41,St. Johns Place Renaissance Garden,1642 St. John's Place,0.089,TPL,Brownsville,Ralph & Buffalo Avenue,40.670169,-73.92352,11233,359,3000000,3013870034,Crown Heights North                                                        
NA,B,B08,35,St. Marks Avenue/ Prospect Heights Community Garden,207 St. Marks Avenue,0.075,TPL,Prospect Heights,Vanderbilt & Carlton Avenues,40.67871,-73.96929,11238,163,3000000,3011440063,Prospect Heights                                                           
B501,B,B16,41,St. Marks Block Association,"455,457-63 Ralph Avenue",0.196,DPR,Brownsville,Active,,,,,,,
B503,B,B03,36,Stars of Hope Community Garden,213 Madison Street,0.033,DPR,,Active,40.684681,-73.950996,11216,245,3000000,3018170057,Bedford                                                                    
B505,B,B16,41,Sterling Community Group,"1701,1713,1715 Sterling Place",0.116,DPR,Brownsville,Active,,,,,,,
B383,B,B05,,Success Garden,461 Williams Avenue,0.918,DPR,,,40.664659,-73.897865,11207,1130,3000000,3038020001,East New York (Pennsylvania Ave)                                           
NA,M,M03,2,Suffolk Street Community Garden,174 Suffolk Street,0.053,NYRP,Lower East Side,Houston & Stanton,40.720933,-73.985083,10002,3001,1000000,1003500005,Chinatown                                                                  
M319,M,M09,0,Sugar Hill Park,339-341 Edgecombe Avenue.,0.069,DPR,,Active,40.826462,-73.941811,10031,231,1000000,1020530099,Hamilton Heights                                                           
B411,B,B06,39,Summit Street Community Garden,281-283 Columbia Street,0.103,DPR,Red Hook,Active,40.682578,-74.003869,11231,51,3000000,3003530002,Carroll Gardens-Columbia Street-Red Hook                                   
B525,B,B03,41,Sumpter Community Garden,182 Sumpter Street,0.057,DPR,,Active,40.680246,-73.917693,11233,379,3000000,3015250028,Stuyvesant Heights                                                         
B427,B,B01,34,Sunshine Community Garden,99-100 McKibben Street,0.115,DPR,Williamsburg,Active,40.70508,-73.944013,11206,505,3000000,3030790038,East Williamsburg                                                          
NA,B,B13,47,Surf Side Garden,2829 Surf Avenue,NA,HPD,Coney Island,At W. 29th Street,40.572905,-73.994741,11224,342,3000000,3070520056,Seagate-Coney Island                                                       
X296,X,X04,16,Taqwa Community Farm,90 W 164th Street,0.49,DPR,Highbridge,Active,40.832559,-73.928305,10452,189,2000000,2025110090,Highbridge                                                                 
NA,X,X04,16,Target (Bronx) Community Garden (Anderson Avenue Community Garden),1001 Anderson Avenue,0.253,NYRP,Highbridge,W 164th & W 165th Streets,40.832284,-73.927189,10452,189,2003145,2025080043,Highbridge                                                                 
NA,B,B03,36,Target (Brooklyn) Community Garden (Bedford Avenue Block Association Garden),931-933 Bedford Avenue,0.092,NYRP,Bed-Stuy,DeKalb & Willoughby Avenue,40.692061,-73.955631,11205,241,3414278,3017620019,Bedford                                                                    
NA,M,M11,8,Target East Harlem Community Garden,415-421 East 117th Street,0.163,DPR,East Harlem,1st Avenue & E 117th St,40.79645,-73.934347,10035,178,1000000,1017110008,East Harlem North                                                          
NA,M,M11,8,Target East Harlem Community Garden (St. Mark's Monastery 2),429-433 East 117th Street,0.142,NYRP,East Harlem,1st & Pleasant Avenues,40.796357,-73.934119,10035,178,1000000,1017110013,East Harlem North                                                          
B445,B,B01,34,Ten Eyck Houses HDFC,15-17 Ten Eyck Street,0.114,DPR,East Williamsburg,Active,40.709598,-73.950072,11206,513,3000000,3027910046,North Side-South Side                                                      
NA,B,B05,42,Thomas Jefferson High School,642-648 Blake Avenue,0.036,DOE,East New York,Pennsylvania Avenueune,40.667777,-73.895164,11207,1156,3000000,3037880031,East New York (Pennsylvania Ave)                                           
B416,B,B05,37,TLC Sculpture Park,271 Glenmore Avenue,0.172,DPR,East New York,Active,40.672509,-73.900636,11207,1144,3000000,3036990038,East New York (Pennsylvania Ave)                                           
X331,X,X05,14,Townsend Garden (Mt. Hope Housing Co.),1735 Walton Avenue,0.15,DPR,Mt. Eden,Active,40.846592,-73.910938,10453,22701,2000000,2028490068,Mount Hope                                                                 
NA,M,M03,2,Toyota Childrens Learning Garden (Coradan Evaeden),603 East 11th Street,0.037,NYRP,East Village,Avenues B & C,40.727311,-73.979074,10009,28,1000000,1003940067,Lower East Side                                                            
NA,B,B03,,Tranquility Farm,267 Throop Ave.,NA,HPD,,,40.694666,-73.943253,11206,283,3000000,3017610074,Stuyvesant Heights                                                         
NA,X,X06,15,Tremont Community Garden,S/W/C E. 178th St. & LaFontaine Avenue.,0.057,TPL,,E. 178th & LaFontaine Avenue,,,,,,,
B496,B,B05,0,"Triple R/Relaxation, Reflection, Revenue (Victoria Garden)",613 Hendrix Street,NA,DPR,East New York,Active,40.666544,-73.887795,11207,1124,3000000,3040750107,East New York                                                              
Q477A,Q,Q01,0,Two Coves Garden,30th Avenue & Main Avenue & Astoria Boulevard,0.77,DPR,,Active,,,,,,,
B515,B,B05,,United Community Centers Site I,285 - 303 New Lots Avenue,0.546,DPR,,,40.660713,-73.895655,11207,1130,3085844,3038540013,East New York (Pennsylvania Ave)                                           
NA,B,B03,36,United Herkimer Garden Club,97 Herkimer Street,0.055,TPL,,Nostrand & Bedford Avenue,40.679691,-73.950448,11216,247,3000000,3018600062,Crown Heights North                                                        
M298,M,M10,21,Unity Garden,53-55 West 128th Street,0.129,DPR,West Harlem,Active,40.809031,-73.942488,10027,208,1000000,1017260014,Central Harlem North-Polo Grounds                                          
NA,B,B13,47,Unity Tower Tenant Association,1917-23 Surf Avenue,0.21,HPD,Coney Island,W 20th St,40.575064,-73.985961,11224,326,3000000,3070600032,Seagate-Coney Island                                                       
B493,B,B05,37,Upon This Rock Community Garden,2556 Pitkin Avenue.,0.081,DPR,East New York,Active,40.674543,-73.877838,11208,1194,       ,          ,East New York                                                              
M343,M,M03,0,Vamos Sembrar: For the Beloved and Otherwise Forgotten,198 Avenue B,0.023,DPR,,Active,40.728258,-73.978901,10009,34,1000000,1004060038,East Village                                                               
NA,B,B03,,Van Buren Street Garden,49 Van Buren Street,NA,HPD,,,40.690036,-73.943557,11221,263,3000000,3017910063,Bedford                                                                    
B495,B,B03,34,Vernon (Throop Avenue Block Assoc.),253 Throop Avenue,0.039,DPR,Bed-Stuy,Active,40.695179,-73.943354,11206,283,3000000,3017610004,Stuyvesant Heights                                                         
B508,B,B03,36,Vernon New Harvest,42-48 Vernon Avenue,0.165,DPR,Bed-Stuy,Active,40.694461,-73.950534,11206,253,3000000,3017580031,Bedford                                                                    
B494,B,B03,34,Vernon T&T Block Assoc.,200 Vernon Ave.,0.046,DPR,Bed-Stuy,Active,40.695196,-73.944122,11206,25901,3048852,3017600039,Bedford                                                                    
B523,B,B13,47,Victory Garden,Shell Road,0.174,DPR/DEP,Coney Island,Active,,,,,,,
X010C,X,X03,20,Victory Garden - Crotona Park,Fulton Avenue / 171 St / Crotona Park South,0.463,DPR,,Active,,,,,,,
B518,B,B03,,Victory Gardens Group,953 Gates Avenue,0.152,DPR,,,40.688836,-73.92789,11221,387,3000000,3016320046,Stuyvesant Heights                                                         
NA,M,M11,9,Villa Santurce Jardinera - 112th Street,74 E. 112th Street,0.045,HPD,East Harlem,Park & Madison Avenues,40.796895,-73.945424,10029,17402,1000000,1016170038,East Harlem South                                                          
NA,M,M11,9,Villa Santurce Jardineras - Park Avenue,Park Avenue,0.09,HPD,East Harlem,111th & 112th Streets,,,,,,,
X347,X,X01,17,Vogue Community Garden,431 E. 156th Street,0.047,DPR,Melrose,Active,40.820531,-73.914448,10455,69,       ,          ,Melrose South-Mott Haven North                                             
B456,B,B08,35,Walt L. Shamal Community Garden,1093-1095 Dean Street,0.149,DPR,Crown Heights,Active,40.677263,-73.953835,11216,221,3029967,3012050049,Crown Heights North                                                        
NA,X,X07,11,Walton High School,2780 Reservoir Avenue,0.046,DOE,Kingsbridge Heights,Strong & 196th Street,40.870293,-73.898309,10468,409,2015241,2032470070,Van Cortlandt Village                                                      
X272A,X,X01,8,Wanaqua Garden,460-464 E. 136th Street,0.228,DPR,,Active,40.807068,-73.922098,10454,25,2000000,2022800036,Mott Haven-Port Morris                                                     
NA,B,B06,38,Warren-St.Marks Community Garden,623 Warren Street,0.057,TPL,Park Slope,b/w 4th & 5th avenue,40.68082,-73.979402,11217,12901,3000000,3009340066,Park Slope-Gowanus                                                         
X088A,X,X09,18,Waterfront Community Garden,2008 Gildersleeve Avenue,0.27,DPR,Soundview,Active,40.809962,-73.85071,10473,4,2000000,2034480033,Soundview-Castle Hill-Clason Point-Harding Park                            
B538,B,B03,36,Welcome Home Garden,681 Halsey Street,0.059,DPR,Bed-Stuy,Developed,40.684676,-73.924963,11233,383,3000000,3016630082,Stuyvesant Heights                                                         
M306,M,M07,8,West 104th Street Garden,6-10 W. 104th Street/ 14-18 W. 104th Street,0.38,DPR,Upper West Side,Active,,,,,,,
M368,M,M09,9,West 111th Street People's Garden,1036-53 Amsterdam Avenue,0.109,DPR,Upper West Side,Active,40.803674,-73.963366,10025,199,1000000,1018830028,Morningside Heights                                                        
M362,M,M10,9,West 124th Street Community Garden,West 124th Street and 5th Avenue,0.046,DPR,,Active,,,,,,,
M380,M,M10,,West 131st Street Community Garden,34 West 131st Street,NA,DPR,Harlem,Active,40.81071,-73.940702,10037,208,1000000,1017280054,Central Harlem North-Polo Grounds                                          
M296,M,M10,9,West 132nd Street Garden,108-114 W. 132nd Street,0.171,DPR,Central Harlem,Active,40.812454,-73.942882,10027,226,1000000,1019160039,Central Harlem North-Polo Grounds                                          
NA,M,M12,7,West 181st Street Beautification Project,814 West 181st Street,0.046,DOT,Washington Heights,Pinehurst/181st,40.851073,-73.938894,10033,265,1064299,1021770105,Washington Heights South                                                   
M307,M,M07,6,West 87th Street Park & Garden,55-57 West 87th Street,0.09,DPR,Upper West Side,Active,40.786617,-73.970356,10024,173,1000000,1012010006,Upper West Side                                                            
NA,B,B08,36,Westbrook Memorial Garden,1233 Pacific Street,0.118,TPL,Crown Heights,Bedford & Nostrand Avenues,40.677792,-73.951866,11216,315,3000000,3012000070,Crown Heights North                                                        
NA,R,R01,49,Westervelt Community & Family Garden,143 Westervelt Avenue,0.011,NYRP,,At Curtis Pl near Hamilton Avenue,40.644392,-74.084861,10301,7,5000000,5000310003,West New Brighton-New Brighton-St. George                                  
M322,M,M09,7,William A. Harris Garden,NWC of 153rd St & St. Nicholas,NA,DPR,,Active,,,,,,,
M328,M,M10,9,William B. Washington Memorial Garden,321-325 West 126th Street,0.09,DPR,,Active,40.811116,-73.9513,10027,215,1000000,1019530023,Central Harlem North-Polo Grounds                                          
NA,B,B05,37,Williams Avenue Community Garden (formerly Shaw Block Association),88 Williams Avenuenue,0.126,NYRP,,Liberty & Atlantic,,,,,,,
X164A,X,X02,,Wishing Well Garden,886 Reverend James A. Polite,0.351,DPR,,Active,,,,,,,
NA,B,BK4,34,Woodbine St. Block Assoc.,146 Woodbine Street,0.057,TPL,,,40.692534,-73.916722,11221,415,3000000,3033590028,Bushwick South                                                             
X333,X,X04,16,Woodycrest Community Garden,949 Woodycrest Avenue,0.012,DPR,Highbridge,Active,40.83116,-73.929149,10452,189,2000000,2025110030,Highbridge                                                                 
